name,address,phone,international,city,state,country,added
Motor Sport Harley-Davidson,"Acuarela St. 92, Guaynabo, PRI",7877904900,1,,,,2022-11-07 22:33:28
Harley-Davidson Old San Juan,"Plaza del Hotel, San Juan, PRI",7877214202,1,,,,2022-11-07 22:33:28
Harley-Davidson of St. Thomas,"30 Dronningens, St. Thomas, VIR",3407765557,1,,,,2022-11-07 22:33:28
Harley-Davidson of St. Thomas,"14B Estate Thomas, St. Thomas, VIR",3407144590,1,,,,2022-11-07 22:33:28
Service Point - Dominican Republic,"Ave. Abraham Lincoln No. 124, Santo Domingo, DOM",18293830328,1,,,,2022-11-07 22:33:28
Harley-Davidson of St. Kitts,"B-06 Marina Village, St. Kitts, KNA",8694663419,1,,,,2022-11-07 22:33:28
Harley-Davidson Grand Turk,"South Dock Rd, Cockburn Town, TCA",2153401999,1,,,,2022-11-07 22:33:28
Harley-Davidson Curacao,"The Rif Fort 505, Willemstad, CUW",59994626217,1,,,,2022-11-07 22:33:28
Harley-Davidson Aruba,"J.E. Irausquin Blvd # 382 A, Paseo Herencia, ABW",,1,,,,2022-11-07 22:33:28
Harley-Davidson Aruba,"L.G. Smith Blvd. 17, Unit C, Oranjestad, ABW",,1,,,,2022-11-07 22:33:28
Harley Davidson FWI,"Rue Des Arawaks, Fort de France, MTQ",596696292040,1,,,,2022-11-07 22:33:29
Harley-Davidson Helsinki,"Kalajärven Puistotie 6, Espoo, FIN",358106170600,1,,,,2022-11-07 22:36:38
Artmotor,"Ristisillantie 1, Lapinjärvi, FIN",35819610980,1,,,,2022-11-07 22:36:38
HARLEY-DAVIDSON TALLINN,"Punane 74A, Tallinn, EST",3726604691,1,,,,2022-11-07 22:36:38
Harley-Davidson Tampere,"Tampereentie 202, Lempäälä, FIN",35833751000,1,,,,2022-11-07 22:36:38
Harley-Davidson Turku,"Hämeen Valtatie 133, Turku, FIN",358103273180,1,,,,2022-11-07 22:36:38
Moto-Seinäjoki,"Lieskatie 2, Hyllykallio, FIN",358207939842,1,,,,2022-11-07 22:36:38
Cycle House Kuopio Oy,"Rautakatu 6, Kuopio, FIN",358503066289,1,,,,2022-11-07 22:36:38
Harley-Davidson Riga,"K. Ulmana Ave 21, Riga, LVA",37167606062,1,,,,2022-11-07 22:36:39
Harley-Davidson Täby,"Kuskvägen 3, Sollentuna, SWE",46856257032,1,,,,2022-11-07 22:36:39
Harley-Davidson Stockholm,"Murmästarvägen 25, Skärholmen, SWE",46852225500,1,,,,2022-11-07 22:36:39
HD Umea,"Stromvagen 2, Umea, SWE",46906904494,1,,,,2022-11-07 22:36:39
Harley-Davidson Sundsvall,"Kontorsvägen 8, Sundsvall, SWE",,1,,,,2022-11-07 22:36:39
Harley-Davidson Järvsö,"Industrivägen 22, Järvsö, SWE",4665141243,1,,,,2022-11-07 22:36:39
Harley-Davidson Oulu,"Vasaratie 2, Oulu, FIN",35885346500,1,,,,2022-11-07 22:36:39
Harley-Davidson Linköping,"Bonnorpsgatan 4, Linköping, SWE",4613204848,1,,,,2022-11-07 22:36:39
Harley-Davidson Luleå,"Murbruksvägen 13, Luleå, SWE",46920225500,1,,,,2022-11-07 22:36:39
Harley-Davidson Vilnius,"Paplaujos 5, Vilnius, LTU",37061522233,1,,,,2022-11-07 22:36:39
Harley-Davidson Minsk,"Harley-Davidson Minsk, Minsk, BLR",375172631864,1,,,,2022-11-07 22:36:39
Harley-Davidson Trollhättan,"Lextorpsvägen 997, Trollhättan, SWE",46520488030,1,,,,2022-11-07 22:36:39
Harley-Davidson Gdansk,"Mialki Szlak 4/8, Gdansk, POL",48583218877,1,,,,2022-11-07 22:36:39
Harley-Davidson Oslo,"Strømsveien 266, OSLO, NOR",4722907800,1,,,,2022-11-07 22:36:40
Harley-Davidson Göteborg,"Aminogatan 32c, Mölndal, SWE",4631801340,1,,,,2022-11-07 22:36:40
Harley-Davidson of Barbados,"Cruise Line Terminal, St. Michael, BRB",2464305948,1,,,,2022-11-07 22:37:46
Harley-Davidson of the West Indies,"Parravicino Office Complex, Hastings, BRB",2464362489,1,,,,2022-11-07 22:37:46
Harley-Davidson of the West Indies,"Grantley Adams, Christ Church, BRB",12464362489,1,,,,2022-11-07 22:37:46
Old School Harley-Davidson,"398 Somers Rd, Ellington, CT",8608756663,0,,,,2022-11-07 22:39:05
Hartford Harley-Davidson,"221 Governor St., East Hartford, CT",8607484607,0,,,,2022-11-07 22:39:05
Yankee Harley-Davidson,"488 Farmington Ave, Bristol, CT",8605838484,0,,,,2022-11-07 22:39:05
Sheldon's Harley-Davidson,"914 Southbridge St, Auburn, MA",5087219876,0,,,,2022-11-07 22:39:05
Ronnie's Harley-Davidson,"501 Wahconah St, Pittsfield, MA",4134430638,0,,,,2022-11-07 22:39:05
"American Harley-Davidson, Inc.","1437 Central St Rte 12, Leominster, MA",9785376919,0,,,,2022-11-07 22:39:06
Freedom Road Harley-Davidson,"557 W Main St, Branford, CT",2033154759,0,,,,2022-11-07 22:39:06
"Mike's Famous Harley-Davidson, New London, CT","951 Bank St., New London, CT",8605749200,0,,,,2022-11-07 22:39:06
Monadnock Harley-Davidson,"588 Monadnock Hwy, Swanzey, NH",6033521472,0,,,,2022-11-07 22:39:06
Ocean State Harley-Davidson Shop,"435 Nooseneck Hill Rd, Exeter, RI",4013921162,0,,,,2022-11-07 22:39:06
Harley-Davidson of Danbury,"51 Federal Rd., Danbury, CT",2037302453,0,,,,2022-11-07 22:39:06
Russ' Ocean State Harley-Davidson,"35 Albany Rd, Warwick, RI",4017816866,0,,,,2022-11-07 22:39:06
Precision Harley-Davidson,"269 Armistice Blvd, Pawtucket, RI",4017240010,0,,,,2022-11-07 22:39:06
Brunswick Harley-Davidson,"1130 Hoosick Rd, Troy, NY",5182791145,0,,,,2022-11-07 22:39:06
Woodstock Harley-Davidson,"949 Rte 28, Kingston, NY",8453382800,0,,,,2022-11-07 22:39:06
High Octane Harley-Davidson,"1 Chelmsford Rd, North Billerica, MA",9785283974,0,,,,2022-11-07 22:39:06
Spitzie's Harley-Davidson of Albany,"1970 Central Ave, Albany, NY",5184567433,0,,,,2022-11-07 22:39:06
Eastern Harley-Davidson,"1570 Old Country Rd, Riverhead, NY",6317274700,0,,,,2022-11-07 22:39:06
Monty's Harley-Davidson,"751 N Main St, West Bridgewater, MA",5085831172,0,,,,2022-11-07 22:39:06
Moroney's Harley-Davidson Sales,"833 Union Ave, New Windsor, NY",8455645400,0,,,,2022-11-07 22:39:06
Boston Harley-Davidson,"649 Squire Rd # 1, Revere, MA",6173898888,0,,,,2022-11-07 22:39:07
Manchester Harley-Davidson,"115 John Devine Dr, Manchester, NH",8336840819,0,,,,2022-11-07 22:39:07
Battleship Harley-Davidson,"799 State Road, North Dartmouth, MA",5089991200,0,,,,2022-11-07 22:39:07
Suffolk County Harley-Davidson,"4020 Sunrise Hwy, Oakdale, NY",6312449000,0,,,,2022-11-07 22:39:07
H-D Military Sales,"Attn Cliff Chin., Woodbury, NY",5169212800,0,,,,2022-11-07 22:39:07
Empire Harley-Davidson,"8 Industrial Ln, New Rochelle, NY",9146326743,0,,,,2022-11-07 22:39:07
O'Toole's Harley-Davidson,"4 Sullivan St, Wurtsboro, NY",8458882426,0,,,,2022-11-07 22:39:07
McDermott's Harley-Davidson,"4294 State Rte 4, Fort Ann, NY",5187469303,0,,,,2022-11-07 22:39:07
Adirondack Harley-Davidson,"106 Bellen Rd, Broadalbin, NY",5188831128,0,,,,2022-11-07 22:39:07
Harley-Davidson of Nassau County,"2428 Sunrise Hwy, Bellmore, NY",5164099200,0,,,,2022-11-07 22:39:07
Cape Cod Harley-Davidson,"750 MacArthur Blvd., Pocasset, MA",5085637387,0,,,,2022-11-07 22:39:08
Twin States Harley-Davidson,"351 Miracle Mile, Lebanon, NH",6034484664,0,,,,2022-11-07 22:39:08
Bergen County Harley-Davidson,"124 Essex St, Rochelle Park, NJ",2018436930,0,,,,2022-11-07 22:39:08
Seacoast Harley-Davidson,"17 Lafayette Rd, North Hampton, NH",6039649959,0,,,,2022-11-07 22:39:08
New York City Harley-Davidson,"4211 Northern Blvd, Long Island City, NY",3473786346,0,,,,2022-11-07 22:39:08
Harley-Davidson of New York City,"595 Broadway, New York, NY",2122334369,0,,,,2022-11-07 22:39:08
Harley-Davidson of Rochester,"7 Crane Drive, Rochester, NH",6033303330,0,,,,2022-11-07 22:39:08
Laconia Harley-Davidson,"239 Daniel Webster Hwy., Meredith, NH",6032794526,0,,,,2022-11-07 22:39:08
Cape Cod Harley-Davidson,"615 Main St, Hyannis, MA",5087780021,0,,,,2022-11-07 22:39:08
Harley-Davidson of Staten Island,"1973 Forest Avenue, Staten Island, NY",7184474009,0,,,,2022-11-07 22:39:08
Garden State Harley-Davidson,"1775 Rt 10 E, Morris Plains, NJ",9738987100,0,,,,2022-11-07 22:39:08
Liberty Harley-Davidson,"12 W Milton Ave, Rahway, NJ",7323812400,0,,,,2022-11-07 22:39:08
"Baer Sport Center, Inc.","330 Grandview Ave, Honesdale, PA",5702532000,0,,,,2022-11-07 22:39:08
Shoreline Harley-Davidson,"136 Monmouth Rd, West Long Branch, NJ",7322298518,0,,,,2022-11-07 22:39:08
Wilkins Harley-Davidson,"663 S Barre Rd, Barre, VT",8024766104,0,,,,2022-11-07 22:39:08
Williams Harley-Davidson,"1100 US Hwy 22W, Lebanon, NJ",9082360767,0,,,,2022-11-07 22:39:09
Harley-Davidson of Utica,"4870 Commercial Dr, New York Mills, NY",3157975570,0,,,,2022-11-07 22:39:09
White Mountain Harley-Davidson,"1275 White Mountain Hwy, North Conway, NH",6033567775,0,,,,2022-11-07 22:39:09
Pocono Mountain Harley-Davidson,"110 Hill Motor Lodge Rd, Tannersville, PA",5709927500,0,,,,2022-11-07 22:39:09
Electric City Harley-Davidson,"1534 Scranton Carbondale, Scranton, PA",5704830883,0,,,,2022-11-07 22:39:09
Big Moose Harley-Davidson,"375 Riverside St, Portland, ME",2077976061,0,,,,2022-11-07 22:39:13
L-A Harley-Davidson,"839 Main St, Lewiston, ME",2077862822,0,,,,2022-11-07 22:39:13
North Country Harley-Davidson,"3099 N Belfast Ave., Augusta, ME",2076227994,0,,,,2022-11-07 22:39:18
Southern Tier Harley-Davidson,"1152 Front St, Binghamton, NY",6077730264,0,,,,2022-11-07 22:39:28
Performance Harley-Davidson,"807 N Geddes St, Syracuse, NY",3154711157,0,,,,2022-11-07 22:44:26
Keystone Harley-Davidson,"2800 Eberhart Rd, Whitehall, PA",6103794055,0,,,,2022-11-07 22:44:35
F.X. Caprara Harley-Davidson,"17890 Goodnough St, Adams Center, NY",3155836177,0,,,,2022-11-07 22:46:28
Carrier Harley-Davidson Sherbrooke,"9460 Boul. Bourque, Sherbrooke, QC",8195630707,1,,,,2022-11-07 22:48:27
Central Maine Harley-Davidson,"2387 Rte 2, Hermon, ME",2078485709,0,,,,2022-11-07 22:49:07
Leo Harley-Davidson,"8705 boul. Taschereau, Brossard, QC",4504434488,1,,,,2022-11-07 22:57:38
Carrier Harley-Davidson,"5630 Rue Martineau, St-Hyacinthe, QC",4502536686,1,,,,2022-11-07 22:57:43
Carrier Harley-Davidson Drummondville,"176 boul. Industriel, St-Germain de Grantham, QC",8193952464,1,,,,2022-11-07 22:58:30
Stars & Stripes Harley-Davidson,"600 S Flowers Mill Rd, Langhorne, PA",2678175520,0,,,,2022-11-07 23:15:36
Atlantic County Harley-Davidson,"219 E White Horse Pike, Galloway, NJ",6096525555,0,,,,2022-11-07 23:25:18
Harley-Davidson Dresden,"Meissner Strasse 31, Radebeul, DEU",4935179565570,1,,,,2022-11-07 23:26:36
Harley-Davidson Hradec Kralove,"Jana Cerneho 31/16, Hradec Kralove, CZE",420777710079,1,,,,2022-11-07 23:26:36
Harley-Davidson Praha Fashion Shop,"Havelska 25, Praha 1, CZE",420778751776,1,,,,2022-11-07 23:26:36
Harley- Davidson Praha,"K Mechurce 12, Praha 5, CZE",420251565396,1,,,,2022-11-07 23:26:36
Appaloosa,"ul. Partynicka 8, Wroclaw, POL",48717900900,1,,,,2022-11-07 23:26:36
Harley-Davidson Chemnitz,"Reichsstrasse 1, Chemnitz, DEU",4937127368110,1,,,,2022-11-07 23:26:37
Harley Station,"Storkower Strasse, Koenigs Wusterhausen, DEU",493375211055,1,,,,2022-11-07 23:26:37
Harley-Davidson Leipzig,"Dortmunder Strasse 2, Leipzig, DEU",,1,,,,2022-11-07 23:26:37
Harley-Davidson Potsdam,"Rudolf-Moos-Strasse 12, Potsdam, DEU",493316015500,1,,,,2022-11-07 23:26:37
Classic Bike Harley-Davidson Berlin,"Huttenstr. 50, Berlin, DEU",49306167930,1,,,,2022-11-07 23:26:37
Harley-Davidson Plzen,"Daimlerova 1207/3, Plzen, CZE",420777481370,1,,,,2022-11-07 23:26:37
V-Force,"Sw. Michala 62, Poznan, WLK",48618775070,1,,,,2022-11-07 23:26:37
Bertl's H-D Gera,"Naulitzer Strasse 35, Gera, DEU",4936555283580,1,,,,2022-11-07 23:26:37
Popp Service KG,"Waldershofer Strasse 22, Marktredwitz, DEU",49923162262,1,,,,2022-11-07 23:26:37
Harley-Davidson Brno,"Krizíkova 68d, Brno, CZE",420532045506,1,,,,2022-11-07 23:26:37
Harley-Davidson Szczecin,"T/as Harley-Davidson Szczecin, Szczecin, POL",48734148447,1,,,,2022-11-07 23:26:38
Harley-Davidson Magdeburg,"Hellestrasse 25, Magdeburg, DEU",49391611450,1,,,,2022-11-07 23:26:38
Harley-Davidson Erfurt,"Weimarische Strasse 15D, Erfurt, DEU",493617929890,1,,,,2022-11-07 23:26:38
Harley-Davidson Ostrava,"U Stadionu 3343/5, Ostrava, CZE",420608470030,1,,,,2022-11-07 23:26:38
Harley-Davidson Bayerwald,"Deggendorfer Strasse 15, Schwarzach, DEU",499962203200,1,,,,2022-11-07 23:26:38
Harley-Davidson Katowice,"al.Rozdzienskiego 208b, Katowice, POL",48323533116,1,,,,2022-11-07 23:26:38
Harley-Davidson Regensburg,"Amberger Strasse 42, Regensburg, DEU",499414646560,1,,,,2022-11-07 23:26:38
Harley-Davidson Linz,"Freistaedter Str. 336, Linz, AUT",43732244844,1,,,,2022-11-07 23:26:38
Harley-Davidson Lodz,"ul.Dabrowskiego 207/213, Lodz, POL",48695440758,1,,,,2022-11-07 23:26:38
Bertl's Harley-Davidson,"Im Maintal 9, Unterhaid, DEU",499503502900,1,,,,2022-11-07 23:26:38
Harley-Davidson Torun,"ul. Szosa Lubicka 141, Torun, K-P",48698180090,1,,,,2022-11-07 23:26:39
Harley-Davidson St. Poelten,"Wiener Strasse 211, St. Poelten, AUT",43274274454,1,,,,2022-11-07 23:26:39
Harley-Davidson Nuernberg,"Kreuzburger Strasse 1, Nürnberg, DEU",499119881860,1,,,,2022-11-07 23:26:39
Harley-Davidson Braunschweig,"Waller See 2, Schwuelper, DEU",49531313970,1,,,,2022-11-07 23:26:39
Fischer's Harley-Davidson Wien,"Triester Strasse 260-262, Wien, DEU",4316985252,1,,,,2022-11-07 23:26:39
Harley-Davidson Ingolstadt,"Marie-Curie-Straße 25, Ingolstadt, DEU",0841883560,1,,,,2022-11-07 23:26:39
Harley-Davidson Krakow,"Opolska 8, Krakow, MAL",48123834103,1,,,,2022-11-07 23:26:39
Harley-Davidson Bratislava,"Rebarborová 1, Bratislava, SVK",421220725080,1,,,,2022-11-07 23:26:39
Harley-Davidson Krakow Fashion Shop,"plac Mariacki 1, Krakow, POL",48726012002,1,,,,2022-11-07 23:26:39
Harley-Davidson Staalfabrik Rostock,"Timmermannsstrat 2, Rostock, DEU",4938126059700,1,,,,2022-11-07 23:26:39
Harley-Davidson Fulda,"Heidelsteinstrasse 8, Fulda, DEU",49661941880,1,,,,2022-11-07 23:26:40
Harley-Davidson Kassel,"Harzweg 3, Baunatal, DEU",4956141050,1,,,,2022-11-07 23:26:40
Harley-Davidson Hannover,"Grambartstrasse 27, Hannover, DEU",495118994960,1,,,,2022-11-07 23:26:40
Harley-Davidson Village Würzburg,"Raiffeisenstrasse 12, Hettstadt, DEU",4993145265990,1,,,,2022-11-07 23:26:40
HOT-STUFF Harley-Davidson Salzburg,"Wasserfeldstrasse 17a, Salzburg, AUT",43662265016,1,,,,2022-11-07 23:26:40
Harley-Davidson BB,"Kostiviarska cesta 10, Banska Bystrica, SVK",421918800535,1,,,,2022-11-07 23:26:40
Harley-Davidson Breitenfelde,"Dorfstrasse 16-17, Breitenfelde, DEU",4945426403,1,,,,2022-11-07 23:26:41
Harley-Davidson Sopron,"Györi ut. 50/b, Sopron, HUN",36302800565,1,,,,2022-11-07 23:26:41
House of Flames Munich,"Zamdorfer Strasse 20, Muenchen, DEU",49899292800,1,,,,2022-11-07 23:26:41
H-D Hamburg Sued,"An der Reitbahn 1 d, Seevetal, DEU",4941051369050,1,,,,2022-11-07 23:26:41
House of Flames Rosenheim,"Sebastian-Tiefenthalerstr 16, Rohrdorf, DEU",,1,,,,2022-11-07 23:26:41
House of Flames Munich West,"Anton-Boeck-Strasse 32, Muenchen, DEU",498989796030,1,,,,2022-11-07 23:26:41
Harley-Davidson Luebeck,"Taschenmacherstr. 6, Luebeck, DEU",49451472717,1,,,,2022-11-07 23:26:41
Harley-Davidson Hamburg Nord,"Ivo-Hauptmann-Ring 4, Hamburg, DEU",49404130300,1,,,,2022-11-07 23:26:41
Harley-Davidson Westpoint Augsburg,"Max-Josef-Metzger-Str. 17, Augsburg, DEU",49821780900,1,,,,2022-11-07 23:26:41
Gabriel Harley-Davidson Montreal,"6695 rue St-Jacques, Montreal, QC",5147127777,1,,,,2022-11-07 23:32:31
Boutin Harley-Davidson,"2000 boul. Hébert, Valleyfield, QC",4503736565,1,,,,2022-11-07 23:32:50
Harley-Davidson Victoriaville,"12 boul. Arthabaska, Victoriaville, QC",8197588830,1,,,,2022-11-07 23:33:07
Premont Harley-Davidson Laval,"3255 rue Jules Brillant, Laval, QC",4509734501,1,,,,2022-11-07 23:35:57
Becancour Harley-Davidson,"4350 rue Arsenault., Bécancour, QC",8192333303,1,,,,2022-11-07 23:35:57
St-Jérôme Harley-Davidson,"39 Rue John-F. Kennedy, Saint-Jérôme, QC",4504329992,1,,,,2022-11-07 23:35:58
Premont Harley-Davidson,"1071 boul. Pierre Bertrand, Ville de Quebec, QC",4186831340,1,,,,2022-11-07 23:35:58
Freedom Harley-Davidson of Ottawa,"1963 Merivale Road, Nepean, ON",6137368899,1,,,,2022-11-07 23:38:02
Harley-Davidson de L'Outaouais,"22 boul. du Mont-Bleu, Gatineau, QC",8197728008,1,,,,2022-11-07 23:44:47
Plourde's Harley-Davidson,"11 Laurette St, Caribou, ME",2074963211,0,,,,2022-11-07 23:44:52
RPM Harley-Davidson,"3340 rue Panet, Saguenay, QC",4186997766,1,,,,2022-11-07 23:45:06
Harley-Davidson Rimouski,"424 Montée Industrielle, Rimouski, QC",4187240883,1,,,,2022-11-07 23:46:17
Kingston Harley-Davidson,"295 Dalton Ave, Kingston, ON",6135444600,1,,,,2022-11-07 23:46:31
Harley-Davidson Bielefeld,"Am Stadtholz 24-26, Bielefeld, DEU",495215237360,1,,,,2022-11-08 00:11:06
Harley-Davidson Hanau,"Brueningstrasse 2, Hanau, DEU",4961819690677,1,,,,2022-11-08 00:11:06
Harley-Davidson Mittelhessen,"Industriestrasse 3, Wetzlar-Dutenhofen, DEU",496416868080,1,,,,2022-11-08 00:11:07
Harley-Shop Langer,"Industriering 13, Schaafheim, DEU",49607380566,1,,,,2022-11-08 00:11:07
Harley-Davidson Factory Frankfurt,"Waechtersbacher Strasse 83, Frankfurt, DEU",49694089990,1,,,,2022-11-08 00:11:07
Borjes Harley-Davidson Bremen,"Hauptstrasse 55, Stuhr, DEU",494218004410,1,,,,2022-11-08 00:11:08
Harley-Davidson Osnabrueck,"Hannoversche Strasse 11, Osnabrueck, DEU",4954160080600,1,,,,2022-11-08 00:11:08
Harley-Davidson Bergstrasse,"Neuwiesenfeld 5, Bensheim, DEU",4962511388770,1,,,,2022-11-08 00:11:08
Harley-Davidson Wiesbaden,"Kasteler Str. 44, Wiesbaden, DEU",496117322733,1,,,,2022-11-08 00:11:08
Harley-Davidson Pfeiffer,"Werver Mark 123, Kamen-Heeren, DEU",49230741795,1,,,,2022-11-08 00:11:08
The Harley Warehouse Company,"Hafenweg 24, Muenster, DEU",49251608060,1,,,,2022-11-08 00:11:08
Harley-Davidson Schwäbisch Gmund,"Nubertstr 2, Schwäbisch Gmünd, DEU",4971719963790,1,,,,2022-11-08 00:11:08
Börjes Bikers Outfit Oldenburg,"Bremer Heerstrasse 420, Oldenburg, DEU",494412047886,1,,,,2022-11-08 00:11:08
Motomaxx Harley-Davidson Hagen,"Hochofenstrasse 9, Hagen-Haspe, DEU",49233194690,1,,,,2022-11-08 00:11:09
Harley-Davidson Rhein-Neckar,"Am Herrschaftsweiher 21, Ludwigshafen-Ruchheim, DEU",49623792690,1,,,,2022-11-08 00:11:09
Harley-Davidson Koblenz,"Otto-Schoenhagen-Str. 10, Koblenz, DEU",49261884320,1,,,,2022-11-08 00:11:09
Toys For Big Boys,"633 Salisbury Rd, Moncton, NB",5068588088,1,,,,2022-11-08 00:11:31
Privateers Harley-Davidson,"74 Hobsons Lake Dr, Halifax, NS",9024444647,1,,,,2022-11-08 00:12:20
Harley-Davidson Kiel,"Rendsburger Landstrasse 465, Kiel, DEU",49431698866,1,,,,2022-11-08 00:13:02
Harley-Davidson Bochum,"Centrumplatz 1, Bochum, DEU",4923279955910,1,,,,2022-11-08 00:17:26
Harley-Davidson Stuttgart,"Zuffenhauser Str. 93, Korntal-Muenchingen, DEU",497118386176,1,,,,2022-11-08 00:26:52
HARLEY-DAVIDSON Karlsruhe-Nord,"Neuwiesenstrase 10, Karlsdorf-Neuthard, DEU",4972519101820,1,,,,2022-11-08 00:26:53
House of Flames Ulm,"Wiesengraben 3-1, Erbach-Ringingen, DEU",4973449698410,1,,,,2022-11-08 00:26:53
Harley-Davidson of Penang,"1679-G1, Jalan Perusahaan, Perai, MYS",60379496000,1,,,,2022-11-08 00:49:57
Harley-Davidson of Hatyai,"882 Supphasanrangsan Road, Hat Yai, 36",6674491990,1,,,,2022-11-08 00:49:57
Harley-Davidson of Patong,"Banana Walk Beach Front, Patong, THA",,1,,,,2022-11-08 00:49:57
Harley-Davidson of Phuket,"88/9 Moo 5 Thepkrasattri Road,, Phuket, THA",6676681017,1,,,,2022-11-08 00:49:57
Sumatera Motor Harley-Davidson of Medan,"No.132 Jl Cemara Boulevard, Propinsi Sumatera Utara, IDN",62614526466,1,,,,2022-11-08 00:49:57
Harley-Davidson of Petaling Jaya,"The Gasket Alley, Petaling Jaya, MYS",600379559399,1,,,,2022-11-08 00:49:57
Route 77 Harley-Davidson of Kuala Lumpur,"Lot 4343 Jalan Ampang, Kuala Lumpur, MYS",60342668077,1,,,,2022-11-08 00:49:57
Harley-Davidson of Johor Bahru,"69, Jalan Ibrahim Sultan, Johor Bahru, JOH",60126198577,1,,,,2022-11-08 00:49:57
Wearnes Harley-Davidson of Singapore,"45 Leng Kee Road, Singapore, SG",6564304926,1,,,,2022-11-08 00:49:57
AAS Harley-Davidson of Pattaya,"Nong Prue, Banglamung,, Pattaya, THA",6638255255,1,,,,2022-11-08 00:49:57
Harley-Davidson of Phnom Penh,"C01 - Russian Blvd, Phnom Penh, KHM",85523917777,1,,,,2022-11-08 00:49:58
Harley-Davidson Grenoble,"17 Blvd Paul Langevin, Fontaine, 38",33476531402,1,,,,2022-11-08 00:56:37
HARLEY-DAVIDSON TORINO,"Strada del Drosso 45A, TORINO, TO",116614739,1,,,,2022-11-08 00:56:37
Harley-Davidson American Clan Torino,"Via Francesco Cigna, 116/A, Torino, TO",390110363110,1,,,,2022-11-08 00:56:38
Spirit Of Eagle,"168 Avenue d'Aix les Bains, SEYNOD, FRA",33450695880,1,,,,2022-11-08 00:56:38
Harley-Davidson Factory,"16, Chemin des Espartes, CAGNES-SUR-MER, FRA",33492000841,1,,,,2022-11-08 00:56:38
HARLEY-DAVIDSON ALBA,"Via Alba-Barolo 97, CASTIGLIONE FALLETTO, CN",0173262471,1,,,,2022-11-08 00:56:38
Prestige Motorcycles,"Impasse des figuiers, Roquebrune sur Argens, FRA",33494442131,1,,,,2022-11-08 00:56:38
Harley-Davidson Avignon,"Route Nationale 100, Rochefort du Gard, FRA",33490166140,1,,,,2022-11-08 00:56:38
HARLEY-DAVIDSON SUNROAD,"RD 572 Route d'Aix-en-Provence, Salon-de-Provence, FRA",33490597870,1,,,,2022-11-08 00:56:38
Harley-Davidson Grand Lyon Sud,"Chemin de Sacuny, Brignais, FRA",33478056089,1,,,,2022-11-08 00:56:38
HARLEY-DAVIDSON SAINT ETIENNE,"1-3 Rue Pierre Loti, Saint-Etienne, FRA",33477344242,1,,,,2022-11-08 00:56:39
Harley-Davidson Geneva,"4A, Route des Jeunes, Les Acacias, CHE",41227041080,1,,,,2022-11-08 00:56:39
Harley-Davidson Grand Lyon,"58 Chemin de la Bruyere, Dardilly, FRA",33472521441,1,,,,2022-11-08 00:56:39
Harley-Davidson Massilia,"156 Cours Lieutaud, MARSEILLE, FRA",33496120564,1,,,,2022-11-08 00:56:39
Harley-Davidson Toulon,"Z1 Les Espaluns, La Valette du Var, FRA",33498013015,1,,,,2022-11-08 00:56:39
HARLEY-DAVIDSON SAVONA - 5 GALLONI,"Via Ferraris, 139/D, VADO LIGURE, SV",0192160064,1,,,,2022-11-08 00:56:39
Harley-Davidson Wallis-Valais,"Granges-Gare No 1, Granges, CHE",41279343020,1,,,,2022-11-08 00:56:39
Harley-Davidson Lausanne,"Riond Bosson 2, Morges, CHE",41217060101,1,,,,2022-11-08 00:56:39
HARLEY-DAVIDSON GENOVA,"Via del Commercio 27, GENOVA, GE",0103723002,1,,,,2022-11-08 00:56:39
Macadam Moto,"ZAC DU MAS DE GRILLE, SAINT JEAN DE VEDAS, FRA",33467472215,1,,,,2022-11-08 00:56:39
HARLEY-DAVIDSON LEGNANO,"Corso Sempione 225, LEGNANO, MI",0331455501,1,,,,2022-11-08 00:56:40
Harley-Davidson Fribourg,"Ch. de Combernesse 6, Rossens, FR",41264127070,1,,,,2022-11-08 00:56:40
HARLEY-DAVIDSON PAVIA,"Via Bramante 3/5, PAVIA, PV",0382530620,1,,,,2022-11-08 00:56:40
HARLEY-DAVIDSON VARESE,"Via Italo Cremona 42B, Gazzada-Schianno, VA",0332332663,1,,,,2022-11-08 00:56:40
HARLEY-DAVIDSON GATE32 MILANO,"VIALE CERTOSA 235, MILANO, MI",390233000970,1,,,,2022-11-08 00:56:40
Harley-Davidson Chalon-sur-Saone,"ZAC du Parc d'activité, SEVREY, 36",33385933200,1,,,,2022-11-08 00:56:40
Harley-Davidson Neuchâtel,"Chemin des Echelles 3, Cortaillod, CHE",41328413454,1,,,,2022-11-08 00:56:40
Harley-Davidson Thun,"Bernstrasse 14, Steffisburg, CHE",41333332211,1,,,,2022-11-08 00:56:40
Harley-Davidson Lugano,"c.p. 251 - Strada da Igia 6, Pambio-Noranco, CHE",41919401161,1,,,,2022-11-08 00:56:41
HARLEY-DAVIDSON PORTOFINO,"Via Latiro 26, SESTRI LEVANTE, GE",0185456878,1,,,,2022-11-08 00:56:41
HARLEY-DAVIDSON BREVA E TIVAN,"HARLEY-DAVIDSON BREVA E TIVAN, Alzate Brainza (CO), CO",39031619870,1,,,,2022-11-08 00:56:41
HARLEY-DAVIDSON MONZA,"Via Dante 231, CONCOREZZO, MI",0396908158,1,,,,2022-11-08 00:56:41
HARLEY-DAVIDSON COUNTRY ROAD,"Via Dalmazia, 21, Lodi, LO",0371.1920701,1,,,,2022-11-08 00:56:41
Harley-Davidson Clermont-Ferrand,"23 av. des Frères Montgolfier, Aubiere, 63",0473729797,1,,,,2022-11-08 00:56:41
Access Dream,"5 RUE EDOUARD BELIN, BESANCON, FRA",33381419060,1,,,,2022-11-08 00:56:41
Harley-Davidson Beziers,"2 Av de la Deveze, BEZIERS, FRA",33467624739,1,,,,2022-11-08 00:56:42
ARNI Harley-Davidson Solothurn,"Hauptstrasse 18, Hessigkofen, CHE",41326611313,1,,,,2022-11-08 00:56:42
HARLEY-DAVIDSON BERGAMO,"Via Bergamo 18, SAN PAOLO D'ARGON, BG",035958567,1,,,,2022-11-08 00:56:42
Harley-Davidson Dijon,"15 Rue Nourissat, DIJON, FRA",33380363738,1,,,,2022-11-08 00:56:42
HARLEY-DAVIDSON PARMA,"Strada Nazionale Est 45.d, STRADELLA DI COLLECCHIO, PR",05211912515,1,,,,2022-11-08 00:56:42
B!XE Harley-Davidson Zentral-Schweiz,"Rothusstrasse 22, Huenenberg, CHE",41417854100,1,,,,2022-11-08 00:56:42
Harley-Davidson Basel,"Andlauring 32, Aesch, CHE",41617518888,1,,,,2022-11-08 00:56:42
HARLEY-DAVIDSON BRESCIA,"Viale S. Eufemia 26, BRESCIA, BS",0303366984,1,,,,2022-11-08 00:56:42
Harley-Davidson Aargau,"Kaisermatt 1, Densbueren, CHE",41628678700,1,,,,2022-11-08 00:56:42
Harley-Davidson Power Shop,"Burghoelzle Strasse 15, Weil am Rhein, DEU",49762162022,1,,,,2022-11-08 00:56:42
Harley-Davidson Mönchaltorf,"Mettlenbachstrasse 3, Moenchaltorf, ZH",41449481048,1,,,,2022-11-08 00:56:43
Harley-Davidson 66 Perpignan,"Chemin de la Fauceille, PERPIGNAN, FRA",33468552109,1,,,,2022-11-08 00:56:43
HARLEY-DAVIDSON LIVORNO,"Via Provinciale Pisana 633, LIVORNO, LI",0586426578,1,,,,2022-11-08 00:56:43
HD DREAM-STORE,"ZA Espale, SAUSHEIM, FRA",33389310310,1,,,,2022-11-08 00:56:43
Bütikofer Harley-Davidson Zürich,"Riedgrabenstrasse 1, Rümlang, ZH",41445441515,1,,,,2022-11-08 00:56:43
Geneva Harley-Davidson Sales & Service,"1103 Rte 5 and 20, Geneva, NY",3157897976,0,,,,2022-11-08 01:00:11
Harv's Harley-Davidson,"3120 Kittering Rd, Macedon, NY",5853770711,0,,,,2022-11-08 01:00:11
Freedom Valley Harley-Davidson,"3255 State Rd, Sellersville, PA",2152576112,0,,,,2022-11-08 01:22:23
Harley-Davidson Emsland,"Magnusstrasse 3, Emsbueren, DEU",4959032589120,1,,,,2022-11-08 01:35:12
Barb's Harley-Davidson,"926 Black Horse Pike, Mount Ephraim, NJ",8564564141,0,,,,2022-11-08 01:42:11
Hannum's Harley-Davidson,"1011 W Baltimore Pike, Media, PA",6105665562,0,,,,2022-11-08 01:42:11
Schaeffer's Harley-Davidson,"1123 Brick Hill Rd, Orwigsburg, PA",5703660143,0,,,,2022-11-08 01:42:28
Brandywine Harley-Davidson,"1241 Baltimore Pike, Chadds Ford, PA",6105583331,0,,,,2022-11-08 01:50:48
Classic Harley-Davidson,"983 James Dr, Leesport, PA",6109167777,0,,,,2022-11-08 01:56:59
Vreeland's Harley-Davidson,"317 Montour Blvd, Bloomsburg, PA",5707842453,0,,,,2022-11-08 01:56:59
White's Harley-Davidson,"1515 E Cumberland St, Lebanon, PA",7172724986,0,,,,2022-11-08 01:56:59
Lancaster Harley-Davidson,"308 Beaver Valley Pike, Willow Street, PA",7174642703,0,,,,2022-11-08 01:58:10
Rommel Harley-Davidson,"450 Stadium St, Smyrna, DE",3026588800,0,,,,2022-11-08 02:01:26
Iron Valley Harley-Davidson,"3091 Lebanon Rd., Manheim, PA",7176640888,0,,,,2022-11-08 02:01:26
Eisenhauer's Chesapeake Harley-Davidson,"4600 Thunder Ct, Darlington, MD",4108932493,0,,,,2022-11-08 02:01:26
Susquehanna Valley Harley-Davidson,"6300 Allentown Blvd, Harrisburg, PA",7178101993,0,,,,2022-11-08 02:01:27
Eisenhauer's York Harley-Davidson,"100 Arsenal Rd, York, PA",7178543214,0,,,,2022-11-08 02:01:27
Harley-Davidson of Baltimore,"8845 Pulaski Hwy, Rosedale, MD",4102382003,0,,,,2022-11-08 02:01:27
Horsepower Harley-Davidson,"1910 E 3rd St, Williamsport, PA",5703200630,0,,,,2022-11-08 02:01:27
Appalachian Harley-Davidson,"6695 Carlisle Pike, Mechanicsburg, PA",7177669366,0,,,,2022-11-08 02:01:27
Eisenhauer's Tioga County Harley-Davidson,"2911 S Main St, Mansfield, PA",5706595000,0,,,,2022-11-08 02:02:11
Battlefield Harley-Davidson,"21 Cavalry Field Rd, Gettysburg, PA",7173379005,0,,,,2022-11-08 02:08:25
Finger Lakes Harley-Davidson,"6033 Rte 13, Cayuta, NY",6075943536,0,,,,2022-11-08 02:16:57
Rommel Harley-Davidson Delmarva,"2410-A N. Salisbury Blvd, Salisbury, MD",4102633345,0,,,,2022-11-08 02:28:08
Old Glory Harley-Davidson,"11800 Laurel Bowie Rd., Laurel, MD",2029631640,0,,,,2022-11-08 02:28:37
#1 Cycle Center Harley-Davidson,"107 Yearicks Blvd, Centre Hall, PA",8143641340,0,,,,2022-11-08 02:35:36
M & S Harley-Davidson,"160 Falling Spring Rd, Chambersburg, PA",7177099650,0,,,,2022-11-08 02:36:23
District Harley-Davidson,"7830 Airpark Rd, Gaithersburg, MD",3019484581,0,,,,2022-11-08 02:46:33
"Harley-Davidson of Washington, DC","9407 Livingston Rd, Fort Washington, MD",3012481200,0,,,,2022-11-08 02:46:34
All American Harley-Davidson,"8126 Old Leonardtown Rd, Hughesville, MD",3012745000,0,,,,2022-11-08 02:46:34
Harley-Davidson of Frederick,"5722 Urbana Pike, Frederick, MD",3016948177,0,,,,2022-11-08 02:46:35
Patriot Harley-Davidson,"9739 Fairfax Blvd, Fairfax, VA",7033525400,0,,,,2022-11-08 02:46:35
Harley-Davidson of Quantico,"17975 Main St, Dumfries, VA",7032213757,0,,,,2022-11-08 02:46:35
Bull Run Harley-Davidson,"9321 Center St, Manassas, VA",7036313750,0,,,,2022-11-08 02:46:36
Harley-Davidson of Williamsport,"10210 Governor Ln Blvd, Williamsport, MD",3012231800,0,,,,2022-11-08 02:46:36
Old Dominion Harley Davidson,"10611 Patriot Hwy, Fredericksburg, VA",5403767833,0,,,,2022-11-08 02:46:36
HARLEY-DAVIDSON BARCELONA,"CL CALVET, 67-69, BARCELONA, 08",34932019928,1,,,,2022-11-08 02:49:17
Harley-Davidson ESPACIO BCN,"Calle Joan Guell, 207, Barcelona, 08",34933394874,1,,,,2022-11-08 02:49:17
HARLEY-DAVIDSON GIRONA,"t/a HARLEY-DAVIDSON GIRONA, FORNELLS DE LA SELVA, ESP",34972476404,1,,,,2022-11-08 02:49:17
Harley-Davidson Tarraco,"Polígono industrial Francolí, Tarragona, 43",34977448550,1,,,,2022-11-08 02:49:17
Harley-Davidson Lleida,"CL AVENIDA DE LES GARRIGUES 44, Lleida, 25",34973225138,1,,,,2022-11-08 02:49:17
Harley-Davidson Andorra,"Prat De La Tresa SN, Sant Julià De Lòria, AND",376880725,1,,,,2022-11-08 02:49:18
Harley-Davidson Mallorca,"GRAN VIA ASIMA 20, Palma De Mallorca, 35",34971459011,1,,,,2022-11-08 02:49:18
American Motos,"6-8 Impasse Gaston Monnerville, TOULOUSE, FRA",33561582676,1,,,,2022-11-08 02:49:18
HARLEY-DAVIDSON ZARAGOZA,"112 AVENICA ALCALDE CABALLERO, Zaragoza, 50",34976596400,1,,,,2022-11-08 02:49:19
HARLEY-DAVIDSON VALENCIA,"Carrer Illes Canàries, 66, Valencia, 46",34961251025,1,,,,2022-11-08 02:49:19
Harley-Davidson Agen,"18, allée Larroumet et Lagarde, Agen, FRA",33553994747,1,,,,2022-11-08 02:49:19
Motos Cote Basque,"11, allée Jacqueline Auriol, ANGLET, 64",33559254040,1,,,,2022-11-08 02:49:20
Cheyenne Radikal Bikes,"POLÍGONO UBEGUN, Villabona, 20",34943690079,1,,,,2022-11-08 02:49:20
Harley-Davidson Alicante,"Carretera de Ocaña, 56-58, Alicante, 03",34965288800,1,,,,2022-11-08 02:49:21
Harley-Davidson Bordeaux,"258 Ave. du Marechal Leclerc, BEGLES, FRA",33557801801,1,,,,2022-11-08 02:49:21
HARLEY-DAVIDSON BILBAO,"Poza Lizentziatuaren 56-58, Bilbao, ESP",34944262482,1,,,,2022-11-08 02:49:21
Harley-Davidson MURCIA,"Av. del Progreso, 195, Murcia, 30",34968347107,1,,,,2022-11-08 02:49:21
Harley-Davidson Limoges,"21 rue Guy Moquet, LIMOGES, FRA",33555350350,1,,,,2022-11-08 02:49:22
Harley-Davidson Madrid,"CL GEN. ALVAREZ DE CASTRO, 26, Madrid, 28",34914471759,1,,,,2022-11-08 02:49:23
HARLEY-DAVIDSON MADRID SUR,"Calle Oslo 53 - Local 7, Alcorcon, 28",34910837424,1,,,,2022-11-08 02:49:23
CANTABRIA HARLEY-DAVIDSON,"Harley-Davidson Cantabria, Astillero, ESP",34942500550,1,,,,2022-11-08 02:49:24
Harley-Davidson Ajaccio,"Lot Michel-Ange, Afa, FRA",330495712692,1,,,,2022-11-08 02:49:24
Harley-Davidson La Rochelle,"Village Auto Moto Beaulieu, Puilboreau, FRA",33546281281,1,,,,2022-11-08 02:49:24
Harley-Davidson Poitiers,"Rue Bessie Coleman, POITIERS, FRA",33549530202,1,,,,2022-11-08 02:49:24
HARLEY-DAVIDSON CAGLIARI,"Via Carlo Bacco 1, Z.I. Ovest, Elmas, CA",070488900,1,,,,2022-11-08 02:49:26
Harley-Davidson Almeria,"CL MANUEL AZANA 165 BAJOS, Almeria, 04",34950220349,1,,,,2022-11-08 02:49:26
Harley-Davidson La Roche-sur-Yon,"160-162, rue J.-Y. Cousteau, Mouilleron-le-Captif, FRA",0251482580,1,,,,2022-11-08 02:49:26
Grove's Winchester Harley-Davidson,"140 Independence Dr, Winchester, VA",5406624468,0,,,,2022-11-08 02:52:56
"Hampton Roads Harley-Davidson, Inc.","6450 George Washington, Yorktown, VA",7578727223,0,,,,2022-11-08 03:01:45
Virginia Beach Harley-Davidson,"1908 Atlantic Ave, Virginia Beach, VA",7574252458,0,,,,2022-11-08 03:01:46
Southside Harley-Davidson,"385 N Witchduck Rd, Virginia Beach, VA",7574998964,0,,,,2022-11-08 03:02:24
Richmond Harley-Davidson,"12200 Harley Club Dr, Ashland, VA",8047522800,0,,,,2022-11-08 03:02:24
Bayside Harley-Davidson,"2211 Frederick Blvd, Portsmouth, VA",7573975550,0,,,,2022-11-08 03:02:24
AAS Metro Harley-Davidson,"A Square 126 Sukhumvit 26 Ally, Bangkok, THA",66974848844,1,,,,2022-11-08 13:37:52
"Harley-Davidson of Bangkok, Thailand (HDBKK)","388 Rama IX Road, Bang Kapi, Bangkok, THA",6623188488,1,,,,2022-11-08 13:37:52
AAS Harley-Davidson of Siam Paragon,"2nd Floor, 991/1 Rama I Road, Bangkok, THA",66021294829,1,,,,2022-11-08 13:37:52
AAS Harley-Davidson of Bangkok,"36/9 16,, Bangkok, THA",6625214545,1,,,,2022-11-08 13:37:52
Harley-Davidson of Thonburi,"292 Moo3, Bangkruai, 36",6620327200,1,,,,2022-11-08 13:37:52
TNR Harley-Davidson of Phitsanulok,"888/8 Pichaisongkram Rd., Phitsanulok, THA",660823974444,1,,,,2022-11-08 13:37:53
Poise Harley-Davidson of Khon Kaen,"789 Moo 9,, Khon Kaen, THA",6643466544,1,,,,2022-11-08 13:37:53
Harley-Davidson of Ubon Ratchathani,"311 Moo 7 Chaeramae Muang, Ubon, 36",6645959922,1,,,,2022-11-08 13:37:53
Richco Harley-Davidson,"357/2 Moo 1 T. Nong Pung, Chiang Mai, THA",6652080761,1,,,,2022-11-08 13:37:53
Central Saigon Harley-Davidson,"94-96 Huynh Van Banh Street, Hcmc, VNM",8402854110708,1,,,,2022-11-08 13:37:53
Harley-Davidson of Saigon,"63 Nguyen Co Thach Street, Ho Chi Minh City, VNM",84854112122,1,,,,2022-11-08 13:37:53
Roc On Harley-Davidson,"2600 W Henrietta Rd, Rochester, NY",5854242120,0,,,,2022-11-08 14:10:17
Arkport Harley-Davidson,"7611 Industrial Park Rd, Hornell, NY",6072957426,0,,,,2022-11-08 14:10:18
Harley-Davidson Malmö,"Lundavägen 140, Malmö, SWE",46406083330,1,,,,2022-11-08 14:11:12
Cap's Harley-Davidson Copenhagen,"Vestre Hedevej 24, Roskilde, DNK",4536450345,1,,,,2022-11-08 14:11:12
Harley-Davidson & Weser Ems,"Stahlwerkstrasse 17, Augustfehn, DEU",4944899425920,1,,,,2022-11-08 14:11:13
Harley-Davidson Helsingborg,"Kroppavägen 40, Mörarp, SWE",4642235025,1,,,,2022-11-08 14:11:13
Larry's Harley-Davidson,"1913 US 6, Galeton, PA",8144356548,0,,,,2022-11-08 14:15:14
HARLEY-DAVIDSON ATHENA,"187, Peiraeus Ave, Athens, 41",302103410850,1,,,,2022-11-08 14:16:08
HARLEY-DAVIDSON THESSALONIKI,"10, Makedonias St, Thessaloniki, 48",302310700707,1,,,,2022-11-08 14:16:08
Harley-Davidson Izmir,"Beyazevler Mah. Akcay Cad., Gaziemir Izmir, 35",902322109595,1,,,,2022-11-08 14:16:08
HARLEY-DAVIDSON SOFIA,"Blvd Botevgradsko shose 348, Sofia, 08",35929452255,1,,,,2022-11-08 14:16:08
Harley-Davidson West,"'Buyukdere Cad. No:171, Istanbul, 34",904442380,1,,,,2022-11-08 14:16:08
Harley-Davidson Istanbul East,"Kizilbegonya Sokak B Blok 10/1, Istanbul, TUR",902165103823,1,,,,2022-11-08 14:16:08
Harley-Davidson Antalya,"Ermenek Mah., ANTALYA, TUR",902423394444,1,,,,2022-11-08 14:16:08
HARLEY-DAVIDSON BARI,"S.S. 96 Km 116, MODUGNO, BA",0805325858,1,,,,2022-11-08 14:16:08
Harley-Davidson Messina,"Via Placida 74/76, Messina, ME",3909045040,1,,,,2022-11-08 14:16:08
H-D Bucharest,"Sos. Bucuresti-Ploiesti 42-44, Bucharest, 10",40722366124,1,,,,2022-11-08 14:16:08
HARLEY-DAVIDSON CATANIA,"Via Alcide de Gasperi 21 A-B-C, ACIREALE, CT",0957631588,1,,,,2022-11-08 14:16:09
Harley-Davidson Belgrade,"Bulevar umetnosti No. 4, Novi Beograd, SRB",381113049444,1,,,,2022-11-08 14:16:09
"Stan's Harley-Davidson, Inc.","4425 W Saile Dr, Batavia, NY",5853439598,0,,,,2022-11-08 14:16:44
Nusantara Harley-Davidson of Jakarta,"No.99 Jl. Radio Dalam Raya, Jakarta Selatan, DKI, IDN",622127517899,1,,,,2022-11-08 14:16:45
Anak Elang Harley-Davidson of Jakarta,"A2 Jl. Boulevard Raya, Jakarta Utara, DKI, IDN",622122454292,1,,,,2022-11-08 14:16:45
Siliwangi Harley-Davidson of Bandung,"No.105 JL Wastukencana, Bandung, Jawa Barat, IDN",622220522988,1,,,,2022-11-08 14:16:45
Kalimas Harley-Davidson of Solo Baru,"Blok HH 9, Jl Raya Solo Permai, Sukoharjo,Jawa Tengah, IDN",62271624159,1,,,,2022-11-08 14:16:45
Custom Cycle Harley-Davidson,"Braendstrup Roddingvej 1, Rodding, DNK",4574822928,1,,,,2022-11-08 14:17:48
Durham Harley-Davidson,"880 Champlain Avenue, Oshawa, ON",9054346550,1,,,,2022-11-08 14:49:25
American Harley-Davidson,"1149 Erie Ave, North Tonawanda, NY",7166927200,0,,,,2022-11-08 14:50:37
Buffalo Harley-Davidson,"140 Mid County Dr, Orchard Park, NY",7169721556,0,,,,2022-11-08 14:55:38
Gowanda Harley-Davidson,"2535 Gowanda Zoar Rd, Gowanda, NY",7165324584,0,,,,2022-11-08 14:55:39
Clare's Harley-Davidson of Niagara,"590 York Rd., Niagara on the Lake, ON",9056844647,1,,,,2022-11-08 14:55:39
Harley-Davidson of Jamestown,"1951 E Main St, Falconer, NY",7164840113,0,,,,2022-11-08 14:55:40
Pfaff Harley-Davidson,"8885 Jane Street, Concord, ON",9057091340,1,,,,2022-11-08 14:55:40
Mississauga Harley-Davidson,"5500 Dixie Rd, Mississauga, ON",9058580966,1,,,,2022-11-08 14:55:40
Du Bois Harley-Davidson,"101 W DuBois Ave, Du Bois, PA",8143715750,0,,,,2022-11-08 14:55:41
Barrie Harley-Davidson,"311 Bryne Drive., Barrie, ON",7057285322,1,,,,2022-11-08 14:55:42
Blackbridge Harley-Davidson,"310 Holiday Inn Drive, Cambridge, ON",5198930493,1,,,,2022-11-08 14:56:02
Harley-Davidson of Erie,"3712 W 12th St, Erie, PA",8148381356,0,,,,2022-11-08 14:56:56
Roundhouse Harley-Davidson,"2626 RT 764, Duncansville, PA",8146967433,0,,,,2022-11-08 14:59:10
Harley-Davidson Fashion Sylt,"Elisabethstrasse 3, Westerland, DEU",49465192149,1,,,,2022-11-08 15:06:18
Harley-Davidson Riyadh,"Btw Exit 5 and 6, N Ring Rd, Riyadh, SAU",96614191919,1,,,,2022-11-08 15:10:36
Harley-Davidson Dhahran,"Int of Khobar-Dammam Hwy, Dammam, SAU",96638571945,1,,,,2022-11-08 15:10:36
Harley-Davidson Bahrain,"Building 14 Road 54, Budaiya, BHR",97317599006,1,,,,2022-11-08 15:10:36
Harley-Davidson Doha,"Showroom E2, Building E,, Doha, QAT",97444632429,1,,,,2022-11-08 15:10:36
Harley-Davidson Kuwait,"Shuwaikh Port, Free Trade Zone, Shuwaikh, KWT",9654823041,1,,,,2022-11-08 15:10:36
Harley-Davidson Abu Dhabi,"Mussafah 4, St 10, Abu Dhabi, DON",97125540667,1,,,,2022-11-08 15:10:37
Fox Harley-Davidson,"123003 Story Book Park Rd, Owen Sound, ON",5193716666,1,,,,2022-11-08 15:22:29
Street Track'n Trail Harley-Davidson,"13723 Conneaut Lake Rd, Conneaut Lake, PA",8143824821,0,,,,2022-11-08 15:39:32
Rocky's Harley-Davidson,"900 Wilton Grove Road, London, ON",5194381450,1,,,,2022-11-08 15:39:32
New Castle Harley-Davidson,"4655 US 422, New Castle, PA",7249242310,0,,,,2022-11-08 15:39:32
Warren Harley-Davidson Sales,"2102 Elm Rd NE, Cortland, OH",3303954700,0,,,,2022-11-08 15:39:33
Western Reserve Harley-Davidson,"8567 Tyler Blvd, Mentor, OH",4409746900,0,,,,2022-11-08 15:39:33
Youngstown Harley-Davidson,"5700 Patriot Blvd, Youngstown, OH",3305052000,0,,,,2022-11-08 15:39:33
McMahon's Harley-Davidson,"613 7th Ave, Beaver Falls, PA",7248466251,0,,,,2022-11-08 15:39:33
Three Rivers Harley-Davidson,"1463 Glenn Ave, Glenshaw, PA",4124873377,0,,,,2022-11-08 15:39:33
Carlton Harley-Davidson,"11771 State Rte 44, Mantua, OH",3302743141,0,,,,2022-11-08 15:39:33
Z & M Harley-Davidson,"6130 Rte 30, Greensburg, PA",7248379404,0,,,,2022-11-08 15:39:34
South East Harley-Davidson Sales Co.,"23105 Aurora Rd, Bedford Heights, OH",4404395300,0,,,,2022-11-08 15:39:34
Highland Harley-Davidson,"802 N Center Ave, Somerset, PA",8144441903,0,,,,2022-11-08 15:39:34
Rubber City Harley-Davidson,"1120 Main Street, Cuyahoga Falls, OH",3305359900,0,,,,2022-11-08 15:39:41
Rock-n-Roll City Harley-Davidson,"4985 W. 150th Street, Cleveland, OH",2162523111,0,,,,2022-11-08 15:39:41
Stinger Harley-Davidson,"3053 Eastpointe Dr, Medina, OH",3307211702,0,,,,2022-11-08 15:39:41
Steel City Harley-Davidson,"1375 Washington Rd, Washington, PA",7242257020,0,,,,2022-11-08 15:39:41
Adventure Harley-Davidson,"1465 State Rte 39 NW, Dover, OH",3303646519,0,,,,2022-11-08 15:39:42
Valley Harley-Davidson,"127 Fort Henry Rd, Triadelphia, WV",3042439300,0,,,,2022-11-08 15:39:42
Wolverine Harley-Davidson,"44660 N Gratiot Ave., Clinton Township, MI",5864637700,0,,,,2022-11-08 15:40:24
Mad River Harley-Davidson,"5316 Milian Rd Ste A, Sandusky, OH",4195022236,0,,,,2022-11-08 15:43:04
Thunder Road Harley-Davidson,"2100 Ambassador Dr, Windsor, ON",5199661520,0,,,,2022-11-08 15:43:04
Ray C's Harley-Davidson of Lapeer,"1491 S Lapeer Rd, Lapeer, MI",8106644505,0,,,,2022-11-08 15:46:46
Harley-Davidson Ankara,"Harley-Davidson ANKARA, Ankara, TUR",903122136555,1,,,,2022-11-08 16:07:53
Highland Harley-Davidson Shop,"1285 National Hwy, Cumberland, MD",2403620200,0,,,,2022-11-08 16:10:00
Mountaineer Harley-Davidson,"7300 Willie G Ave, Morgantown, WV",3042848244,0,,,,2022-11-08 16:10:00
Hale's Harley-Davidson,"1400 Harrington Memorial, Mansfield, OH",4195228602,0,,,,2022-11-08 16:11:22
Motown Harley-Davidson,"14100 Telegraph Rd, Taylor, MI",7349925322,0,,,,2022-11-08 16:12:19
RGs Almost Heaven Harley-Davidson,"2260 Murphys Run Rd, Bridgeport, WV",3046230484,0,,,,2022-11-08 16:21:44
S & P Harley-Davidson,"80 Thunder Rd, Williamstown, WV",3043752530,0,,,,2022-11-08 16:21:44
Fink's Harley-Davidson,"2650 Maysville Pike, Zanesville, OH",7404540010,0,,,,2022-11-08 16:21:44
Jetcor Harley-Davidson,"39 North Stuart Highway, Stuart, NT",0889524884,0,,,,2022-11-08 16:21:45
Athens Harley-Davidson,"165 Columbus Rd, Athens, OH",7405921692,0,,,,2022-11-08 16:21:45
Joe Carson Harley-Davidson,"2930 Helena Dr NW, Carroll, OH",7407561900,0,,,,2022-11-08 16:21:45
Farrow North Harley-Davidson,"7754 E. State Rte 37, Sunbury, OH",7409659900,0,,,,2022-11-08 16:21:45
Farrow East Harley-Davidson,"5840 Scarborough Blvd., Columbus, OH",6148366330,0,,,,2022-11-08 16:21:45
No Cages Harley-Davidson,"7610 Commerce Pl, Plain City, OH",6147642453,0,,,,2022-11-08 16:21:45
Route 30 Harley-Davidson,"350 Tarhe Trl, Upper Sandusky, OH",4192944951,0,,,,2022-11-08 16:21:45
Baxter Harley-Davidson,"1699 Kerr Rd, Bidwell, OH",7404466336,0,,,,2022-11-08 16:21:46
Harley-Davidson of West Virginia,"4924 MacCorkle Ave SW, South Charleston, WV",3047681600,0,,,,2022-11-08 16:21:46
Signature Harley-Davidson,"1176 Professional Dr, Perrysburg, OH",4198732453,0,,,,2022-11-08 16:21:46
Black Sheep Harley-Davidson,"408 4th St, Huntington, WV",3045231340,0,,,,2022-11-08 16:21:56
Stonewall Harley-Davidson,"385 Waugh Blvd, Orange, VA",5406725550,0,,,,2022-11-08 16:22:26
Service Point - Peru,"Av. Paseo de la Republica 1647, Lima, PER",5116131212,1,,,,2022-11-08 16:25:19
Harley-Davidson of Xenia,"1213 Cincinnati Ave, Xenia, OH",9373763344,0,,,,2022-11-08 16:33:07
Roanoke Valley Harley-Davidson,"1925 Peters Creek Rd NW, Roanoke, VA",5405625424,0,,,,2022-11-08 16:33:22
Mountain State Harley-Davidson,"61 Preece Bottom Rd., Delbarton, WV",3044750123,0,,,,2022-11-08 16:33:22
Harley-Davidson of Lynchburg,"20452 Timberlake Rd, Lynchburg, VA",4342372381,0,,,,2022-11-08 16:33:22
Harley-Davidson Central,"Insurgentes Sur 1614, Ciudad de Mexico, DF",525553222100,1,,,,2022-11-08 16:42:53
Esmeralda Harley-Davidson,"Circuito Plaza Esmeralda #5, Atizapan de Zaragoza, MEX",,1,,,,2022-11-08 16:42:53
Harley-Davidson Toluca,"Carretera Mexico-Toluca, Ocoyoacac, MEX",527282857199,1,,,,2022-11-08 16:42:53
Harley-Davidson San Luis Potosi,"Benito Juarez 1158, San Luis Potosi, SLP",524445676539,1,,,,2022-11-08 16:42:53
Estampida Harley-Davidson,"Ave Lazaro Cardenas 3825, Zapopan, JAL",523318153900,1,,,,2022-11-08 16:42:53
Coyote Harley-Davidson,"Carretera Nacional No. 1051, Santiago, NL",528110994500,1,,,,2022-11-08 16:42:54
Harley-Davidson Saltillo,"Carretera a Saltillo Km. 7.1, Saltillo, COA",528446572621,1,,,,2022-11-08 16:42:54
Harley-Davidson Valle,"Av. José Vasconcelos No. 660, San Pedro Garza García, NL",528147370808,1,,,,2022-11-08 16:42:54
Desperado Harley-Davidson,"1201 S Bentsen Rd, McAllen, TX",9566874646,0,,,,2022-11-08 16:42:54
Motor City Harley-Davidson,"24800 Haggerty Rd, Farmington Hills, MI",2483069179,0,,,,2022-11-08 17:06:19
Arsenal Harley-Davidson,"4405 Highland Rd # M59, Waterford, MI",2486743175,0,,,,2022-11-08 17:06:25
Harley-Davidson Tours,"Rond point de l'avion, Parcay-Meslay, FRA",33247224819,1,,,,2022-11-08 17:08:11
Harley-Davidson Nantes,"4, Rue Duguay Trouin, SAINT HERBLAIN, FRA",33228030024,1,,,,2022-11-08 17:08:11
Harley-Davidson Le Mans,"142 Avenue du Panorama, LE MANS, FRA",33243404010,1,,,,2022-11-08 17:08:11
Harley-Davidson Orléans,"812 Rue de la Bergeresse, OLIVET, FRA",33238694020,1,,,,2022-11-08 17:08:11
Harley-Davidson Golfe de Bretagne,"24 Avenue Edouard Michelin, Vannes, FRA",33290999099,1,,,,2022-11-08 17:08:11
H-D & Buell Portes de Bretagne,"11 Allee de Betton, LA MEZIERE, 35",33299149999,1,,,,2022-11-08 17:08:11
H-D Vallee de Chevreuse,"241 Bis, Route Nationale 10, Coignieres, FRA",33185400100,1,,,,2022-11-08 17:08:12
S-One,"58-60 Ave de la, BALLAINVILLIERS, FRA",33169801200,1,,,,2022-11-08 17:08:12
Harley - Davidson Melun,"Parc d'Activités Jean Monnet, Vert Saint Denis, FRA",33185450333,1,,,,2022-11-08 17:08:12
Harley-Davidson Caen,"941 Boulevard Charles Cros, IFS, FRA",33231355020,1,,,,2022-11-08 17:08:12
Roadstar 92,"12 Place Georges Clemenceau, SAINT CLOUD, FRA",33155391000,1,,,,2022-11-08 17:08:13
Harley District 78,"60 Route Nationale 13, CHAMBOURCY, FRA",33130657666,1,,,,2022-11-08 17:08:13
Harley-Davidson Paris Rive Gauche,"83-89, Rue Falguiere, Paris, FRA",33155765504,1,,,,2022-11-08 17:08:13
Harley-Davidson Paris Etoile,"30 Ave de la Grande Armee, PARIS, 75",33171182111,1,,,,2022-11-08 17:08:13
Harley-Davidson Paris Bastille,"47 BD BEAUMARCHAIS, PARIS, FRA",33148040707,1,,,,2022-11-08 17:08:13
Harley-Davidson Borie,"ZAC des Boutareines, VILLIERS SUR MARNE, FRA",33149307890,1,,,,2022-11-08 17:08:13
Cornouaille Motos,"ZA De Kerourvois, Ergue-Gaberic, FRA",33298666900,1,,,,2022-11-08 17:08:14
Passion Road 95,"19 Ave du Bosquet, BAILLET EN FRANCE, 95",33134083969,1,,,,2022-11-08 17:08:14
JERSEY HARLEY-DAVIDSON,"George Town Garage, Jersey, GBR",01534736531,1,,,,2022-11-08 17:08:14
Harley-Davidson Troyes,"Village Entreprises, Saint Germain, FRA",33325751786,1,,,,2022-11-08 17:08:14
Legende 76,"7 Rue Albert Einstein, SAINT JEAN DU CARDONNAY, FRA",33276306290,1,,,,2022-11-08 17:08:14
Harley-Davidson V-Attitude,"Rue Louis St Just, ST. MAXIMIN Cedex, FRA",33344251251,1,,,,2022-11-08 17:08:14
Harley-Davidson Amiens,"Rue Laurent Lavoisier, Longueau, FRA",03.65.91.00.15,1,,,,2022-11-08 17:08:15
Harley-Davidson Reims,"9, RUE DES BLANCS FOSSES, ORMES, FRA",33326506402,1,,,,2022-11-08 17:08:15
Harley-Davidson Asturias,"Parque Empresarial, Collotto-Siero, 33",34985985673,1,,,,2022-11-08 17:48:23
Plymouth Harley-Davidson,"Eagle Rd, Plymouth, GBR",01752283253,1,,,,2022-11-08 17:48:23
Cap's Harley-Davidson Århus,"Lystrupvej 1e, Risskov, DNK",4587415555,1,,,,2022-11-08 17:56:45
Liberator,"Gorczewska 30, Warszawa, POL",48228374614,1,,,,2022-11-08 17:56:48
Harley-Davidson Twin Peaks,"ul. Taneczna 71, Warsaw, POL",48222903322,1,,,,2022-11-08 17:56:48
Inside Passage Harley-Davidson,"34 Front St, Ketchikan, AK",9072254625,0,,,,2022-11-08 18:04:04
Taku Harley-Davidson,"230 S Franklin St, Juneau, AK",9075864100,0,,,,2022-11-08 18:04:05
Chilkoot Pass Harley-Davidson,"750 Broadway, Skagway, AK",9079833620,0,,,,2022-11-08 18:04:05
Mighty Peace Harley-Davidson,"12401 - 99th Street, Grande Prairie, AB",7808828883,1,,,,2022-11-08 18:04:12
Denali Harley-Davidson,"1497 S Hyer Rd, Palmer, AK",9073733366,0,,,,2022-11-08 18:04:23
House of Harley-Davidson,"4334 Spenard Rd, Anchorage, AK",9072485300,0,,,,2022-11-08 18:04:33
Harley-Davidson Farthest North Outpost,"1450 Karen Way., Fairbanks, AK",9074563265,0,,,,2022-11-08 18:04:43
Mount McKinley Harley-Davidson,"236.8 Parks Hwy., Denali National Park, AK",9076834275,0,,,,2022-11-08 18:04:44
Kenai Peninsula Harley-Davidson,"41605 Sterling Hwy., Soldotna, AK",9072606777,0,,,,2022-11-08 18:04:46
Koeln,"Schanzenstrasse 25, Koeln, DEU",492216711190,1,,,,2022-11-08 18:10:13
Harley-Davidson Duesseldorf,"Heesenstraße 70, Duesseldorf, DEU",492119232430,1,,,,2022-11-08 18:10:13
Hells Canyon Harley-Davidson,"306 21st St, Lewiston, ID",2087437433,0,,,,2022-11-08 18:12:47
Lone Wolf Harley-Davidson,"19011 E Cataldo Ave, Spokane Valley, WA",5099277433,0,,,,2022-11-08 18:12:47
Rattlesnake Mountain Harley-Davidson,"3305 W 19th Ave, Kennewick, WA",5097351117,0,,,,2022-11-08 18:12:47
Grizzly Harley-Davidson,"5106 E Harrier Blvd, Missoula, MT",4067212154,0,,,,2022-11-08 18:12:47
Apple State Harley-Davidson,"1707 N 1st St, Yakima, WA",5095751916,0,,,,2022-11-08 18:12:47
High Desert Harley-Davidson,"2310 E Cinema Dr, Meridian, ID",2083385599,0,,,,2022-11-08 18:12:47
Copper Canyon Harley-Davidson,"34 Olympic Way, Butte, MT",4067825601,0,,,,2022-11-08 18:12:47
Jet City Harley-Davidson,"3715 E Valley Rd, Renton, WA",4253363625,0,,,,2022-11-08 18:12:47
Eastside Harley-Davidson,"2350 136th Pl NE, Bellevue, WA",4257022000,0,,,,2022-11-08 18:12:47
Destination Harley-Davidson,"2302 Pacific Hwy E, Fife, WA",2539223700,0,,,,2022-11-08 18:12:47
Wildhorse Harley-Davidson,"63028 Sherman Rd, Bend, OR",5413306228,0,,,,2022-11-08 18:12:48
Mt. Rainier Harley-Davidson,"1001 Alaskan Way, Seattle, WA",2064623100,0,,,,2022-11-08 18:12:48
Emerald City Harley-Davidson,"5711 188th ST SW, Lynnwood, WA",4259211100,0,,,,2022-11-08 18:12:48
Sound Harley-Davidson,"16212 Smokey Point Blvd, Marysville, WA",3604545000,0,,,,2022-11-08 18:12:48
Northwest Harley-Davidson,"8000 Freedom Ln NE, Lacey, WA",3607058515,0,,,,2022-11-08 18:12:48
Volcano Harley-Davidson,"870 E. Berkeley St., Gladstone, OR",5032498653,0,,,,2022-11-08 18:12:48
Destination Harley-Davidson of Silverdale,"9625 Provost Rd NW, Silverdale, WA",3606983700,0,,,,2022-11-08 18:12:48
Paradise Harley-Davidson,"10770 SW Cascade Ave, Tigard, OR",5039243700,0,,,,2022-11-08 18:12:48
Big Sky Harley-Davidson,"4258 10th Ave S, Great Falls, MT",4067272161,0,,,,2022-11-08 18:12:48
Yellowstone Harley-Davidson,"540 Alaska Frontage Rd, Belgrade, MT",4063887684,0,,,,2022-11-08 18:12:48
Snake Harley-Davidson,"2404 Addison Ave E, Twin Falls, ID",2087348400,0,,,,2022-11-08 18:12:48
Mountainview Harley-Davidson,"44768 Yale Road West., Chilliwack, BC",6047927820,1,,,,2022-11-08 18:12:49
Timber Town Harley-Davidson,"3601 Silverton Rd. NE, Salem, OR",5033630634,0,,,,2022-11-08 18:12:49
Grand Teton Harley-Davidson,"848 Houston St, Idaho Falls, ID",2085231464,0,,,,2022-11-08 18:12:49
Barnes Harley-Davidson Langley,"8859 - 201 Street, Langley, BC",6045346044,1,,,,2022-11-08 18:12:49
Barnes Harley-Davidson Kamloops,"1465 Iron Mask Road, Kamloops, BC",2508280622,1,,,,2022-11-08 18:12:49
Willamette Valley Harley-Davidson,"86441 College View Rd, Eugene, OR",5417471033,0,,,,2022-11-08 18:12:49
Barnes Harley-Davidson Victoria,"2940 Ed Nixon Terrace, Victoria, BC",2504751345,1,,,,2022-11-08 18:12:49
Banff Harley-Davidson,"107-138 Banff Ave., Banff, AB",4039851800,1,,,,2022-11-08 18:12:49
Trev Deeley Motorcycles,"1875 Boundary Rd, Vancouver, BC",6042912453,1,,,,2022-11-08 18:12:49
Calgary Harley-Davidson,"2475 Pegasus Rd NE, Calgary, AB",4032503141,1,,,,2022-11-08 18:12:49
Jackson Hole Harley-Davidson,"40 S Milward, Jackson, WY",3077391500,0,,,,2022-11-08 18:12:49
Badlands Harley-Davidson,"1923 - 2 Avenue, Dunmore, AB",4035279235,1,,,,2022-11-08 18:12:49
Beartooth Pass Harley-Davidson,"14 N Broadway, Red Lodge, MT",4064469856,0,,,,2022-11-08 18:12:49
Gold Rush Harley-Davidson,"2640 Ruby Vista Dr, Elko, NV",7757773095,0,,,,2022-11-08 18:12:49
"D & S Harley-Davidson, Inc.","3846 S Pacific Hwy., Medford, OR",5415355515,0,,,,2022-11-08 18:12:50
Buffalo Bill Harley-Davidson,"1137 Sheridan Ave, Cody, WY",3075277776,0,,,,2022-11-08 18:12:50
Beartooth Harley-Davidson,"6900 S Frontage Rd, Billings, MT",4062522888,0,,,,2022-11-08 18:12:50
Saddleback Harley-Davidson,"445 S Main St, Logan, UT",4357878100,0,,,,2022-11-08 18:12:50
Gasoline Alley Harley-Davidson,"37 Petrolia Drive, Red Deer County, AB",4033413040,1,,,,2022-11-08 18:12:50
Golden Spike Harley-Davidson,"5152 S 1500 W, Ogden, UT",8013944464,0,,,,2022-11-08 18:12:50
Harley-Davidson of Salt Lake City,"2928 S State St, Salt Lake City, UT",8014874647,0,,,,2022-11-08 18:12:50
Redding Harley-Davidson,"1268 Twin View Blvd, Redding, CA",5302417117,0,,,,2022-11-08 18:12:50
South Valley Harley-Davidson Shop,"8886 S Sandy Parkway Dr, Sandy, UT",8015631100,0,,,,2022-11-08 18:12:50
Reno Harley-Davidson,"2315 Market St, Reno, NV",7753292913,0,,,,2022-11-08 18:12:50
Timpanogos Harley-Davidson,"555 S Geneva Rd, Lindon, UT",8014344647,0,,,,2022-11-08 18:12:50
Battle Born Harley-Davidson,"2900 Research Way, Carson City, NV",7758827433,0,,,,2022-11-08 18:12:55
Flaming Gorge Harley-Davidson,"440 Uinta Dr, Green River, WY",3078755896,0,,,,2022-11-08 18:13:00
Sierra Steel Harley-Davidson,"1501 Mangrove Ave, Chico, CA",5308931918,0,,,,2022-11-08 18:13:00
Redwood Harley-Davidson,"2500 6th St, Eureka, CA",7074440111,0,,,,2022-11-08 18:13:05
Harley-Davidson of Yuba City,"720 W Onstott Rd, Yuba City, CA",5306733548,0,,,,2022-11-08 18:13:05
Gunnink's Harley-Davidson,"2600 N State St, Ukiah, CA",7074621672,0,,,,2022-11-08 18:13:33
Harley-Davidson of Rocklin,"4401 Granite Dr, Rocklin, CA",9162592453,0,,,,2022-11-08 18:13:34
Harley-Davidson of Folsom,"115 Woodmere Dr, Folsom, CA",9166089922,0,,,,2022-11-08 18:13:34
Barnes Harley-Davidson South Edmonton,"1616 Calgary Trail SW, Edmonton, AB",7804307200,1,,,,2022-11-08 18:15:28
Harley-Davidson of Edmonton,"7420 Yellowhead Trail, Edmonton, AB",7804517857,1,,,,2022-11-08 18:15:29
Harley-Davidson of Brunei,"Lot Q33, Q34, Q35, Bandar Seri Begawan, BRN",6732390294,1,,,,2022-11-08 18:25:34
Harley-Davidson Kota Kinabalu,"No.5 Lrg Tongkuzu SEDCO, Kota Kinabalu, MYS",60168300502,1,,,,2022-11-08 18:25:34
Harley-Davidson of Sacramento,"1000 Arden Way, Sacramento, CA",9169294680,0,,,,2022-11-08 18:27:53
Iron Steed Harley-Davidson,"100 Auto Center Dr, Vacaville, CA",7074557000,0,,,,2022-11-08 18:28:20
Harley-Davidson Stuttgart Süd,"Graf-Zeppelin-Platz 2, Boeblingen, DEU",497031309670,1,,,,2022-11-08 18:30:15
Harley-Davidson Bruchmuehlbach,"Am Gueterbahnhof 10, Bruchmuehlbach, DEU",4963725009960,1,,,,2022-11-08 18:30:15
Rick's Harley-Davidson Baden-Baden,"Flugstrasse 1, Baden-Baden, DEU",49722139390,1,,,,2022-11-08 18:30:16
Harley-Davidson Saarland,"In den Hallen 20-22, Saarbrücken, DEU",49681959490,1,,,,2022-11-08 18:30:16
Harley-Davidson Konz/Trier,"Wilde Acht 2, Konz, DEU",49650160820,1,,,,2022-11-08 18:30:17
Harley-Davidson Viersen,"Gladbacher Strasse 171, Viersen, DEU",4921629197770,1,,,,2022-11-08 18:30:17
Beers Harley-Davidson,"2029 W Hwy 40, Vernal, UT",4357895196,0,,,,2022-11-08 18:49:37
Eagle's Nest Harley-Davidson,"13900 S Harlan Rd, Lathrop, CA",2099410420,0,,,,2022-11-08 18:49:49
Sonoma County Harley-Davidson,"7601 Redwood Dr, Cotati, CA",7077939180,0,,,,2022-11-08 18:49:49
Mitchell's Modesto Harley-Davidson,"500 N Carpenter Rd, Modesto, CA",2095221061,0,,,,2022-11-08 18:49:53
McGuire Harley-Davidson,"93 1st Ave N, Pacheco, CA",9259456500,0,,,,2022-11-08 18:49:54
East Bay Harley-Davidson,"7576 Southfront Rd, Livermore, CA",9256060100,0,,,,2022-11-08 18:49:54
Oakland Harley-Davidson,"151 Hegenberger Rd., Oakland, CA",5106350100,0,,,,2022-11-08 18:49:55
Fresno Harley-Davidson,"4345 W Shaw Ave., FRESNO, CA",5592758586,0,,,,2022-11-08 18:49:55
Alcatraz Harley-Davidson,"93 Jefferson Street, San Francisco, CA",4157767779,0,,,,2022-11-08 18:49:55
Mathews Harley-Davidson,"548 N Blackstone Ave, Fresno, CA",5592335279,0,,,,2022-11-08 18:49:55
San Francisco Harley-Davidson,"3146 Mission St, San Francisco, CA",4158880080,0,,,,2022-11-08 18:49:55
San Jose Harley-Davidson,"1551 Parkmoor Ave, San Jose, CA",4089981464,0,,,,2022-11-08 18:55:28
House of Thunder Harley-Davidson,"16175 Condit Rd, Morgan Hill, CA",4087761900,0,,,,2022-11-08 18:55:33
Monterey Harley-Davidson,"700 Canery Row, Monterey, CA",8317315067,0,,,,2022-11-08 18:56:37
Visalia Harley-Davidson,"30681 N. Hwy 99, Visalia, CA",5597334647,0,,,,2022-11-08 18:58:10
Bakersfield Harley-Davidson,"35089 Merle Haggard Dr, Bakersfield, CA",6613253644,0,,,,2022-11-08 18:58:35
Santa Maria Harley-Davidson,"2022 Preisker Ln, Santa Maria, CA",8059283668,0,,,,2022-11-08 18:58:40
Harley-Davidson Tuttlingen,"Industriestrasse 20, Tuttlingen (Nendingen), DEU",4907461964690,1,,,,2022-11-08 19:03:22
K & M Harley World,"Staudach 4, Staudach / Wangen i.A., DEU",49752297770,1,,,,2022-11-08 19:03:22
Center of Alsace,"RUE DU COMMERCE (RN 83), FEGERSHEIM, FRA",33388685500,1,,,,2022-11-08 19:03:22
Flying Twin,"205 - 207 rue du, St. Gilles Les Bains, REU",2620262458883,1,,,,2022-11-08 19:03:36
Harley-Davidson Playa del Carmen,"Paseo del Carmen, Playa del Carmen, QRO",529848033956,1,,,,2022-11-08 19:10:14
Harley-Davidson Quinta Alegria,"Mza 34 Lotes 01 y 02, Playa del Carmen, QRO",529848033431,1,,,,2022-11-08 19:10:15
Harley-Davidson Cozumel,"Km 3.5 Prol Ave, Cozumel, QRO",9988920241,1,,,,2022-11-08 19:10:15
Harley-Davidson Bikers,"AEROPUERTO INTL DE CANCUN, Cancun, QRO",529988861024,1,,,,2022-11-08 19:10:15
Harley-Davidson Forum,"Plaza Forum By the Sea, Cancun, QRO",529988834850,1,,,,2022-11-08 19:10:15
Harley-Davidson Aeropuerto 4,"Aeropuerto Internacional, Cancun, QRO",529988860325,1,,,,2022-11-08 19:10:15
Harley-Davidson of Belize,"Fort St Tourism Village, Belize City, BLZ",2037107785,1,,,,2022-11-08 19:10:15
Harley-Davidson of Belize,"Harvest Caye, Unit 6, Stann Creek, BLZ",2037107785,1,,,,2022-11-08 19:10:15
Service Point - Guatemala,"6ta Ave 13-17 Zona 09, Guatemala City, GTM",50223854577,1,,,,2022-11-08 19:10:15
Service Point - El Salvador,"Blvd del Hipodromo 441, San Salvador, SLV",50378625060,1,,,,2022-11-08 19:10:16
Colonial Harley-Davidson,"1701 Temple Pkwy, Prince George, VA",8048614700,0,,,,2022-11-08 19:10:37
Steel Horse Harley-Davidson,"11501 Hull Street Rd, Midlothian, VA",8046391737,0,,,,2022-11-08 19:10:37
Outer Banks Harley-Davidson,"8739 Caratoke Hwy., Harbinger, NC",2523388866,0,,,,2022-11-08 19:10:44
First Flight Harley-Davidson,"1808 S Croatan Hwy, Kill Devil Hills, NC",2523388866,0,,,,2022-11-08 19:11:23
Nags Head Harley-Davidson,"4104 S Virginia Dare Trl, Nags Head, NC",2522555922,0,,,,2022-11-08 19:11:23
Thunder Road Harley-Davidson,"4870 Riverside Dr, Danville, VA",4348222453,0,,,,2022-11-08 19:17:01
Harley-Davidson Lazise Pop Up,"Via Pra del Principe, 5, Lazise, VR",393715805881,1,,,,2022-11-08 19:18:04
HARLEY-DAVIDSON VERONA,"Via dell'Agricoltura 3, SOMMACAMPAGNA, VR",045510174,1,,,,2022-11-08 19:18:04
HARLEY-DAVIDSON ONORIO MOTO,"Via Matteotti 4, CORREGGIO, RE",0522692166,1,,,,2022-11-08 19:18:05
Harley-Davidson Trento,"Via Ezio Maccani, 165, Trento, TN",0461950860,0,,,,2022-11-08 19:18:06
Harley-Davidson Graubunden,"Untere Industriestrasse 7, Maienfeld, CHE",41813304000,1,,,,2022-11-08 19:18:06
HARLEY-DAVIDSON VICENZA,"7 Via Ponte Storto, CREAZZO, VI",0444341754,1,,,,2022-11-08 19:18:06
HARLEY-DAVIDSON BOLOGNA,"Via Giovanni Elkan 6/F, BOLOGNA, BO",051727886,1,,,,2022-11-08 19:18:06
HARLEY-DAVIDSON BOZEN-BOLZANO,"Via Pacinotti 4, BOLZANO, BZ",0471976929,1,,,,2022-11-08 19:18:06
HARLEY-DAVIDSON BASSANO DEL GRAPPA,"Via Pecori Giraldi 19/A, BASSANO DEL GRAPPA, VI",0424562153,1,,,,2022-11-08 19:18:06
Harley-Davidson Vorarlberg,"Churer Strasse 30a, Rankweil, AUT",43552241847,1,,,,2022-11-08 19:18:06
HARLEY-DAVIDSON VERSILIA,"Viale Europa 101, CAPANNORI, LU",390583436009,1,,,,2022-11-08 19:18:07
HARLEY-DAVIDSON PADOVA,"Via San Marco 41, PADOVA, PD",390498077888,1,,,,2022-11-08 19:18:07
Harley-Davidson St. Gallen,"Hauptstrasse 144, Au/ SG, CHE",41717475440,1,,,,2022-11-08 19:18:07
Bütikofer Harley-Davidson Thurgau,"Mühlfangstrasse 2, Weinfelden, CHE",41527280405,1,,,,2022-11-08 19:18:07
HARLEY-DAVIDSON TREVISO,"Via Reginato 4, TREVISO, TV",0422230542,1,,,,2022-11-08 19:18:07
Harley-Davidson Venezia Pop Up,"Salizz. Fontego Tedeschi, 5541, Venezia, VE",0422230542,1,,,,2022-11-08 19:18:08
HARLEY-DAVIDSON SPEED SHOP FIRENZE,"Via Pratese 99, FIRENZE, FI",055315879,1,,,,2022-11-08 19:18:08
HARLEY-DAVIDSON RAVENNA,"Via Guglielmo Marconi 65, RAVENNA, RA",0544402469,1,,,,2022-11-08 19:18:43
Flying Iron Harley-Davidson,"928 N Winstead Ave., Rocky Mount, NC",2524467292,0,,,,2022-11-08 19:21:53
Boneyard Harley-Davidson,"2300 Elaines Way, Winterville, NC",2524391345,0,,,,2022-11-08 19:24:04
Harley-Davidson of Guam,"647 Route 8, Maite, GUM",6714724003,1,,,,2022-11-08 19:25:48
Pacific Harley-Davidson,"2330 Kalakaua Ave, Honolulu, HI",8086722409,0,,,,2022-11-08 19:26:36
Honolulu Harley-Davidson,"2005 Kalia Rd, Honolulu, HI",8089734630,0,,,,2022-11-08 19:26:36
Waikiki Harley-Davidson,"Royal HI Shopping Center, Honolulu, HI",8087917880,0,,,,2022-11-08 19:26:36
Cycle City Harley-Davidson,"600 Puuloa Rd., Honolulu, HI",8088312600,0,,,,2022-11-08 19:26:36
Pearl Harbor Harley-Davidson,"1 Arizona Memorial Rd, Honolulu, HI",8088312600,0,,,,2022-11-08 19:26:36
Lahaina Harley-Davidson,"602 Front St, Lahaina, HI",8086672800,0,,,,2022-11-08 19:26:36
Cycle City Maui,"890 Lower Main St, Wailuku, HI",8088777433,0,,,,2022-11-08 19:26:36
Kauai Harley-Davidson,"3-1878 Kaumaulii Hwy, Lihue, HI",8082129495,0,,,,2022-11-08 19:26:36
Kona Harley-Davidson,"69-250 Waikoloa Beach Dr., Waikoloa, HI",8088312600,0,,,,2022-11-08 19:26:36
Antelope Valley Harley-Davidson,"1759 W Ave J12, Lancaster, CA",6619485959,0,,,,2022-11-08 19:30:03
Red Rock Harley-Davidson,"2260 S Rainbow Blvd, Las Vegas, NV",7028762884,0,,,,2022-11-08 19:30:03
Harley-Davidson of Santa Clarita,"21130 Centre Point Pkwy, Santa Clarita, CA",6619640506,0,,,,2022-11-08 19:30:03
Las Vegas Harley-Davidson,"328 E Fremont St, Las Vegas, NV",7023831010,0,,,,2022-11-08 19:30:03
Las Vegas Harley-Davidson,"3500 Las Vegas Blvd S, Las Vegas, NV",7027340447,0,,,,2022-11-08 19:30:03
Las Vegas Harley-Davidson,"3355 Las Vegas Blvd S, Las Vegas, NV",7023692118,0,,,,2022-11-08 19:30:03
Las Vegas Harley-Davidson,"3545 Las Vegas Blvd S, Las Vegas, NV",7027323133,0,,,,2022-11-08 19:30:03
Las Vegas Harley-Davidson,"3645 S Las Vegas Blvd, Las Vegas, NV",7028937773,0,,,,2022-11-08 19:30:03
Las Vegas Harley-Davidson,"3799 Las Vegas Blvd S, Las Vegas, NV",7027957073,0,,,,2022-11-08 19:30:03
Las Vegas Harley-Davidson,"5191 Las Vegas Blvd S, Las Vegas, NV",7024318500,0,,,,2022-11-08 19:30:03
Las Vegas Harley-Davidson,"5757 Wayne Newton Blvd, Las Vegas, NV",7027369493,0,,,,2022-11-08 19:30:04
Ventura Harley-Davidson,"1326 Del Norte Rd, Camarillo, CA",8059819904,0,,,,2022-11-08 19:30:04
Henderson Harley-Davidson,"1010 W Warm Spring Rd, Henderson, NV",7024561666,0,,,,2022-11-08 19:30:04
Mulholland Harley-Davidson,"24050 Ventura Blvd, Calabasas, CA",7474949101,0,,,,2022-11-08 19:30:04
Death Valley Harley-Davidson,"14522 Valley Center Dr, Victorville, CA",7609511119,0,,,,2022-11-08 19:30:04
Harley-Davidson of Glendale,"3717 San Fernando Rd, Glendale, CA",8182465618,0,,,,2022-11-08 19:30:04
Bartels Harley-Davidson,"4141 Lincoln Blvd, Marina Del Rey, CA",3108231112,0,,,,2022-11-08 19:30:12
Laidlaw's Harley-Davidson Sales,"1919 Puente Ave, Baldwin Park, CA",6268510412,0,,,,2022-11-08 19:30:12
Bartels Harley-Davidson LAX,"300 World Way, Los Angeles, CA",3108231112,0,,,,2022-11-08 19:30:12
California Harley-Davidson,"1517 Pacific Coast Hwy, Harbor City, CA",3105393366,0,,,,2022-11-08 19:30:12
Quaid Harley-Davidson,"25160 Redlands Blvd., Loma Linda, CA",9097968399,0,,,,2022-11-08 19:33:36
Zion Harley-Davidson,"2345 N Coral Canyon Blvd, Washington, UT",4356735100,0,,,,2022-11-08 19:33:51
Los Angeles Harley-Davidson,"2635 W Orangethorpe Ave, Fullerton, CA",7148716563,0,,,,2022-11-08 19:42:48
Huntington Beach Harley-Davidson,"15080 Goldenwest Cir, Westminster, CA",8337430496,0,,,,2022-11-08 19:42:48
Riverside Harley-Davidson,"7688 Indiana Ave, Riverside, CA",8337430516,0,,,,2022-11-08 19:55:10
Orange County Harley-Davidson,"8677 Research Dr, Irvine, CA",9497274464,0,,,,2022-11-08 19:55:52
Harley-Davidson Valenciennes,"Rue du Dauphine, Valenciennes, FRA",33327451414,1,,,,2022-11-08 20:10:27
Harley-Davidson Lille-Europe,"ZAC de l'Epinette, Seclin, FRA",33320062323,1,,,,2022-11-08 20:10:27
Harley-Davidson Cote d Opale,"6 ZI de la Liane, Saint Leonard, FRA",33321316666,1,,,,2022-11-08 20:10:28
Harley-Davidson Mons,"Rue de la Poire d'Or 23, Mons-Cuesmes, BEL",3265352822,1,,,,2022-11-08 20:10:28
Harley-Davidson West-Flanders,"Kachtemsestraat 253, Roeselare, BEL",3251222969,1,,,,2022-11-08 20:10:28
Harley-Davidson Gent,"Xavier de Cocklaan 84, St Martens Latem, BEL",3293888031,1,,,,2022-11-08 20:10:28
H-D Namur,"36b Rte de Saussin, Spy, 07",32478634487,1,,,,2022-11-08 20:10:28
Sykes Harley-Davidson,"HOLMES Hl, Lewes, GBR",01825872003,1,,,,2022-11-08 20:10:28
Harley-Davidson Capital Brussels,"Ninoofsesteenweg 59, Dilbeek, BEL",3224540154,1,,,,2022-11-08 20:10:28
RMC Classics,"Mechelsesteenweg 586 A, Vilvoorde, BEL",3222518084,1,,,,2022-11-08 20:10:29
Maidstone Harley-Davidson,"Forstal Rd, Aylesford, GBR",01622711680,1,,,,2022-11-08 20:10:29
American Lifestyle,"Westpoort 66, Zwijndrecht, BEL",3235692444,1,,,,2022-11-08 20:10:29
Milwaukee Twin,"90 BOULEVARD SOLIDARITE, METZ, FRA",33387691200,1,,,,2022-11-08 20:10:29
Motoport Goes,"Nobelweg 4, Goes, NLD",31113231640,1,,,,2022-11-08 20:10:29
Harley-Davidson Liege,"Quai Timmermans 15, Liege, BEL",3242259718,1,,,,2022-11-08 20:10:29
Harley-Davidson Luxembourg,"63 Rue de Remich, Luxembourg, LUX",352409380,1,,,,2022-11-08 20:10:30
Warr's Harley-Davidson South East London,"16-20 Mottingham Road, London, GBR",02088579198,1,,,,2022-11-08 20:10:30
Silver Lake Harley-Davidson,"Winkelom 85, Geel, BEL",3214591270,1,,,,2022-11-08 20:10:30
Guildford Harley-Davidson,"Weyvern Park, Guildford, GBR",01483207222,1,,,,2022-11-08 20:10:30
Warr's Harley-Davidson,"611 Kings Rd, London, GBR",02077362934,1,,,,2022-11-08 20:10:30
Harley-Davidson Fraussen,"Bosdel 49, Genk, BEL",3289730173,1,,,,2022-11-08 20:10:30
Southampton Harley-Davidson,"Heritage House, Southampton, GBR",02380571200,1,,,,2022-11-08 20:10:31
Watford Harley-Davidson,"Unit One, Trade City, Watford, GBR",,1,,,,2022-11-08 20:10:31
Reading Harley-Davidson,"660 Wokingham Rd, Reading, GBR",441183344300,1,,,,2022-11-08 20:10:31
Raging Bull Harley-Davidson,"300 Muldee St, Durham, NC",9195969511,0,,,,2022-11-08 20:20:35
Tobacco Road Harley-Davidson,"1126 S. Saunders St, Raleigh, NC",9198322261,0,,,,2022-11-08 20:21:06
Bulldog Harley-Davidson,"1043 Outlet Center Drive, Smithfield, NC",9199381592,0,,,,2022-11-08 20:21:39
Down Home Harley-Davidson,"2215 W Hanford Rd, Burlington, NC",3362271261,0,,,,2022-11-08 20:21:39
Oude Monnink Motors,"Rientjesoven 18, Borne, NLD",31742040740,1,,,,2022-11-08 20:25:10
Thunderbike HARLEY-DAVIDSON,"Gueterstrasse 5, Hamminkeln / Niederrhein, DEU",492852677754,1,,,,2022-11-08 20:25:12
Big Rivers Harley-Davidson,"Muskushouwsestraat 32, Heteren, NLD",310264742657,1,,,,2022-11-08 20:25:12
Motor Saloon,"Siliciumweg 2, Amersfoort, NLD",31334617398,1,,,,2022-11-08 20:25:12
West Coast Motors,"Madame Curiestraat 6, Alkmaar, NLD",31725110629,1,,,,2022-11-08 20:25:13
Harley-Davidson Amsterdam,"Jarmuiden 43, Amsterdam, NLD",31208334455,1,,,,2022-11-08 20:25:13
Central Harley-Davidson,"Hervensebaan 13, 's-Hertogenbosch, NLD",31736466700,1,,,,2022-11-08 20:25:14
Old Town Temecula Harley-Davidson,"28964 Old Town Front St., Temecula, CA",9515066903,0,,,,2022-11-08 20:30:02
Palm Springs Harley-Davidson,"19465 N Indian Canyon Dr, North Palm Springs, CA",7603291448,0,,,,2022-11-08 20:30:18
Biggs Harley-Davidson,"1040 Los Vallecitos Blvd, San Marcos, CA",7604817300,0,,,,2022-11-08 20:32:19
Cole Harley-Davidson,"1804 Bland St, Bluefield, WV",3043248116,0,,,,2022-11-08 20:32:22
Black Bear Harley-Davidson,"430 Lithia Rd, Wytheville, VA",2762289000,0,,,,2022-11-08 20:32:22
Riding High Harley-Davidson,"3036 NC Hwy 68, High Point, NC",3362731101,0,,,,2022-11-08 20:34:34
Smokin' Harley-Davidson,"3441 Myer Lee Dr, Winston Salem, NC",3367223106,0,,,,2022-11-08 20:34:34
Cox's Harley-Davidson,"2795 NC Highway 134, Asheboro, NC",3366292415,0,,,,2022-11-08 20:38:13
Crossroads Harley-Davidson,"1921B Hwy 421 Business, Wilkesboro, NC",3366671003,0,,,,2022-11-08 20:38:39
Cox's Double Eagle Harley-Davidson,"7540 NC HWY 15 501 S, West End, NC",9104201564,0,,,,2022-11-08 20:38:47
Tilley Harley-Davidson,"1226 Morland Dr, Statesville, NC",7048723883,0,,,,2022-11-08 20:38:47
Fort Bragg Harley-Davidson,"3950 Sycamore Dairy Rd, Fayetteville, NC",9108641200,0,,,,2022-11-08 20:38:48
New River Harley-Davidson,"2394 Wilmington Hwy, Jacksonville, NC",9103469997,0,,,,2022-11-08 20:43:25
Camp Lejeune Harley-Davidson,"Hadnot Plaza Bldg 84, Camp Lejeune, NC",9103539997,0,,,,2022-11-08 20:43:25
Carolina Coast Harley-Davidson,"6620 Market St, Wilmington, NC",9107919997,0,,,,2022-11-08 20:59:46
Beach House Harley-Davidson,"100 Harley-Davidson Dr, Shallotte, NC",9105759997,0,,,,2022-11-08 20:59:55
San Diego Harley-Davidson,"4645 Morena Blvd., San Diego, CA",8586166999,0,,,,2022-11-08 21:03:42
San Diego Harley-Davidson,"849 W Harbor Dr, San Diego, CA",6192345780,0,,,,2022-11-08 21:04:00
El Cajon Harley-Davidson,"621 El Cajon Blvd, El Cajon, CA",6194441123,0,,,,2022-11-08 21:04:00
Coronado Beach Harley-Davidson,"3201 Hoover Ave, National City, CA",6194774477,0,,,,2022-11-08 21:05:00
The Harley-Davidson Shop at the Beach,"4002 Hwy 17 S, North Myrtle Beach, SC",8436635555,0,,,,2022-11-08 21:06:19
Black Jack Harley-Davidson,"2691 Alex Lee Blvd, Florence, SC",8436699961,0,,,,2022-11-08 21:06:19
MB H-D at Broadway at the Beach,"1316 Celebrity Cir, Myrtle Beach, SC",8432935555,0,,,,2022-11-08 21:06:27
Harley-Davidson Jeddah,"Andalus St, Jeddah, SAU",9662232348,1,,,,2022-11-08 21:06:45
Speedway Harley-Davidson,"10049 Weddington Rd, Concord, NC",7049797433,0,,,,2022-11-08 21:14:10
Independence Harley-Davidson,"9205 E Independence Blvd, Matthews, NC",7048474647,0,,,,2022-11-08 21:14:10
London Bridge Harley-Davidson,"1425 N McCulloch Blvd, Lake Havasu City, AZ",9283021812,0,,,,2022-11-08 21:16:15
Mother Road Harley-Davidson,"2501 E Beverly Ave, Kingman, AZ",9287571166,0,,,,2022-11-08 21:16:15
Bobby's Territorial Harley-Davidson,"2550 E Gila Ridge Rd, Yuma, AZ",9287821931,0,,,,2022-11-08 21:16:15
Whiskey Row Harley-Davidson,"138 S Montezuma, Prescott, AZ",9287782241,0,,,,2022-11-08 21:16:16
Legends Harley-Davidson,"10434 S. State Route 69, Mayer, AZ",9286324009,0,,,,2022-11-08 21:16:16
Blue Ridge Harley-Davidson,"2002 13th Avenue Dr SE, Hickory, NC",8283273030,0,,,,2022-11-08 21:16:25
Roadrunner Harley-Davidson,"1402 N. 159th Ave., Goodyear, AZ",6026263320,0,,,,2022-11-08 21:16:26
Cox's Harley-Davidson of Rock Hill,"1178 Galleria Blvd, Rock Hill, SC",8033271183,0,,,,2022-11-08 21:20:58
Myrtle Beach Harley-Davidson #2,"4628 Factory Stores Blvd, Myrtle Beach, SC",8432365555,0,,,,2022-11-08 21:22:12
Black Wolf Harley-Davidson,"1061 Old Abingdon Hwy, Bristol, VA",2766449653,0,,,,2022-11-08 21:24:13
Mineshaft Harley-Davidson,"114 Harley Dr, Pikeville, KY",6064330911,0,,,,2022-11-08 21:25:27
Wrecking Crew Harley-Davidson,"3518 Bristol Hwy, Johnson City, TN",4232830422,0,,,,2022-11-08 21:25:27
Harley-Davidson of Asheville,"20 Patton Cove Rd, Swannanoa, NC",8285812000,0,,,,2022-11-08 21:25:28
Chimney Rock Harley-Davidson,"363 Main St., Chimney Rock, NC",8284365100,0,,,,2022-11-08 21:25:28
High Voltage Harley-Davidson,"365 Sha Lane, Spartanburg, SC",8645838840,0,,,,2022-11-08 21:25:28
Colboch Harley-Davidson,"1830 N Davy Crockett Pkwy, Morristown, TN",4235865343,0,,,,2022-11-08 21:25:43
Harley-Davidson of Greenville,"30 Chrome Dr, Greenville, SC",8642341340,0,,,,2022-11-08 21:26:07
Cherokee Harley-Davidson,"935 Tsalagi Rd, Cherokee, NC",8284971200,0,,,,2022-11-08 21:26:07
Thunder Tower Harley-Davidson,"190 Pontiac Bs Ctr Dr, Elgin, SC",8034611121,0,,,,2022-11-08 21:26:07
Smoky Mountain Harley-Davidson,"3607 Outdoor Sportsman Pl, Kodak, TN",8652250050,0,,,,2022-11-08 21:26:07
Hillbilly H-D a Smoky Mountain Outpost,"530 Parkway, Gatlinburg, TN",8654301602,0,,,,2022-11-08 21:26:07
"Harley-Haven, Inc.","941 Western Ln, Irmo, SC",8037811837,0,,,,2022-11-08 21:26:07
Rocky Top Harley-Davidson,"105 Waldens Main St, Pigeon Forge, TN",8657743445,0,,,,2022-11-08 21:26:08
Smoky Mountain Harley-Davidson Outpost,"196 Everett St., Bryson City, NC",8282378575,0,,,,2022-11-08 21:26:08
Timms Harley-Davidson,"4110 Clemson Blvd, Anderson, SC",8642241531,0,,,,2022-11-08 21:26:08
Knoxville Harley-Davidson,"5810 Clinton Hwy, Knoxville, TN",8656892454,0,,,,2022-11-08 21:26:08
Wildcat Harley-Davidson,"575 E Hal Rogers Pkwy, London, KY",6068625656,0,,,,2022-11-08 21:26:23
Harley-Davidson Rotterdam,"Eerste Tochtweg 2A, Nieuwerkerk a/d IJssel, NLD",31107900130,1,,,,2022-11-08 21:29:06
Harley-Davidson Innsbruck,"Innsbruckerstr.11, Hall in Tirol, AUT",43522321410,1,,,,2022-11-08 21:29:36
HARLEY-DAVIDSON CORTINA D'AMPEZZO POP UP,"Via Roma, 5, Cortina D'ampezzo, BL",390422230542,1,,,,2022-11-08 21:29:36
NIK'S HARLEY-DAVIDSON,"Statale Pontebbana 5A, FIUME VENETO, PN",0434735139,1,,,,2022-11-08 21:29:37
Smoky Mountain H-D,"1820 W Lamar Alexander, Maryville, TN",8659771669,0,,,,2022-11-08 21:32:13
Bootlegger Harley-Davidson,"605 Lovell Rd., Knoxville, TN",8656712454,0,,,,2022-11-08 21:32:13
US 129 Dragon Harley-Davidson,"5908 Calderwood Hwy, Tallassee, TN",8658565942,0,,,,2022-11-08 21:32:14
Cherohala Skyway H-D Smoky Mountain Outpost,"1650 Cherohala Pkwy, Tellico Plains, TN",4232537432,0,,,,2022-11-08 21:32:14
Man O'War Harley-Davidson,"2073 Bryant Rd., Lexington, KY",8592532461,0,,,,2022-11-08 21:32:14
Boswell's Country Roads Harley-Davidson,"1424 Interstate Dr., Cookeville, TN",9315263139,0,,,,2022-11-08 21:32:15
White Lightning Harley-Davidson,"7720 Lee Hwy, Chattanooga, TN",4238924888,0,,,,2022-11-08 21:32:15
Frazier's Harley-Davidson,"4699 Friendship Rd, Buford, GA",7709456011,0,,,,2022-11-08 21:32:15
Mountain Creek Harley-Davidson,"1001 Market St Ste 37, Dalton, GA",7063707433,0,,,,2022-11-08 21:32:15
Harley-Davidson of Eastgate,"699 Old State Rte 74, Cincinnati, OH",5135281400,0,,,,2022-11-08 21:32:25
Bluegrass Harley-Davidson,"2755 Terra Crossing Blvd, Louisville, KY",5022448095,0,,,,2022-11-08 21:32:30
High Stakes Harley-Davidson,"8025 Action Blvd, Florence, KY",8592822111,0,,,,2022-11-08 21:32:30
CinCity Harley-Davidson,"1799 Tennessee Ave, Cincinnati, OH",5136411188,0,,,,2022-11-08 21:32:30
Harley-Davidson Louisville,"1700 Arthur St, Louisville, KY",5026341340,0,,,,2022-11-08 21:32:30
Powder Keg Harley-Davidson,"2383 Kings Center Ct, Mason, OH",5132046962,0,,,,2022-11-08 21:32:30
Queen City Harley-Davidson,"4860 Premier Way, West Chester, OH",5138744343,0,,,,2022-11-08 21:32:31
Harley-Davidson Bowling Green,"251 Cumberland Trace Rd, Bowling Green, KY",2708464488,0,,,,2022-11-08 21:32:36
Bumpus Harley-Davidson of Murfreesboro,"2250 NW Broad St, Murfreesboro, TN",6158498025,0,,,,2022-11-08 21:32:36
Arrowhead Harley-Davidson,"16130 N Arrowhead, Peoria, AZ",6232475542,0,,,,2022-11-08 21:33:15
Buddy Stubbs Arizona Harley-Davidson,"13850 N Cave Creek Rd, Phoenix, AZ",6029713400,0,,,,2022-11-08 21:33:15
Buddy Stubbs Cave Creek Harley-Davidson,"6812 E Cave Creek Rd, Cave Creek, AZ",4805959500,0,,,,2022-11-08 21:33:20
Chandler Harley-Davidson,"6895 W Chandler Blvd, Chandler, AZ",4804966800,0,,,,2022-11-08 21:33:25
Boswell's Ring of Fire Harley-Davidson,"2200 Gallatin Pike N, Madison, TN",6158551001,0,,,,2022-11-08 21:33:55
Southern Devil Harley-Davidson,"2281 Hwy 411 NE, Cartersville, GA",6787210203,0,,,,2022-11-08 21:33:55
Killer Creek Harley-Davidson,"11480 Alpharetta Hwy, Roswell, GA",7707771000,0,,,,2022-11-08 21:33:55
Boswell's Harley-Davidson,"401 Fesslers Ln, Nashville, TN",6152426067,0,,,,2022-11-08 21:33:55
Boswell's Honky Tonk Harley-Davidson,"203 3rd Ave S., Nashville, TN",6152427078,0,,,,2022-11-08 21:33:55
Lynchburg Harley-Davidson,"6 Short St, Lynchburg, TN",9317594430,0,,,,2022-11-08 21:33:55
Harley-Davidson of Scottsdale,"15656 N Hayden Rd., Scottsdale, AZ",4809051903,0,,,,2022-11-08 21:36:10
Desert Wind Harley-Davidson,"922 S Country Club Dr, Mesa, AZ",4802690999,0,,,,2022-11-08 21:38:46
Grand Canyon Harley-Davidson,"12000 W. Route 66, Bellemont, AZ",9287743896,0,,,,2022-11-08 21:42:12
Superstition Harley-Davidson,"2910 W Apache Trl, Apache Junction, AZ",4803460600,0,,,,2022-11-08 21:46:27
Harley-Davidson of Tucson,"7355 N Interstate 10, Tucson, AZ",5207513380,0,,,,2022-11-08 21:46:28
Harley-Davidson Vestfold,"Sondre Kullerod 2A, Sandefjord, NOR",4733471370,1,,,,2022-11-08 21:56:29
Dutch Hills Harley-Davidson,"Langheckweg 2, Kerkrade, NLD",31464422111,1,,,,2022-11-08 21:56:29
Harley-Davidson Power Up,"VIA ROBERTO WENNER, 31/33, Salerno, SA",089303081,1,,,,2022-11-08 21:57:54
HARLEY-DAVIDSON AVELLINO,"Via Roma 2, BAIANO, AV",0818243896,1,,,,2022-11-08 21:57:54
Harley-Davidson Malta,"Mdina Rd, Attard, MLT",35623393102,1,,,,2022-11-08 21:57:54
HARLEY-DAVIDSON NAPOLI,"Via Scarfoglio, 5/Q, Napoli, NA",0815921473,1,,,,2022-11-08 21:57:54
Harley Davidson Split,"Poljicka cesta 26, Split, HRV",38521737330,1,,,,2022-11-08 21:57:54
HARLEY-DAVIDSON DOLPHIN GARAGE,"VIA TIBURTINA VALERIA, 300, Pescara, PE",390854685000,1,,,,2022-11-08 21:57:54
Buckeye Harley-Davidson,"7220 N Dixie Dr, Dayton, OH",9378988084,0,,,,2022-11-08 21:57:59
Piqua Harley-Davidson,"1501 E Ash St, Piqua, OH",9377738733,0,,,,2022-11-08 21:57:59
Lima Harley-Davidson,"3255 Ft Shawnee Ind Dr, Lima, OH",4193313027,0,,,,2022-11-08 21:58:15
Ben Breece Harley-Davidson,"6388 US 224, Ottawa, OH",4195234274,0,,,,2022-11-08 22:01:54
HARLEY-DAVIDSON MOTORFAN,"HARLEY-DAVIDSON MOTOR FAN, Riccione, RN",0541692313,1,,,,2022-11-08 22:03:08
Harley-Davidson Golden Hills - Arezzo,"Via Ferraris 19, Arezzo, AR",0575984995,1,,,,2022-11-08 22:03:08
Clocktower Harley-Davidson Graz,"Kaerntner Strasse 173, Graz, AUT",43316258173,1,,,,2022-11-08 22:04:42
Motodrom Harley-Davidson Kaernten,"Lodengasse 23, Klagenfurt, AUT",43463331150,1,,,,2022-11-08 22:04:43
Mann's Harley-Davidson,"3250 W Market Place Dr., Edinburgh, IN",8125263485,0,,,,2022-11-08 22:11:55
Grand Junction Harley-Davidson,"2747 Crossroads Blvd, Grand Junction, CO",9702450812,0,,,,2022-11-08 22:20:22
Silverton Harley-Davidson,"1139 Greene St, Silverton, CO",9703879877,0,,,,2022-11-08 22:20:24
Durango Harley-Davidson,"750 S Camino Del Rio, Durango, CO",9702590778,0,,,,2022-11-08 22:20:24
Four Corners Harley-Davidson,"6520 E. Main St., Farmington, NM",5053256710,0,,,,2022-11-08 22:20:25
Kohl Harley-Davidson Aachen,"Sonnenscheinstraße 70, Aachen, DEU",492415688688,1,,,,2022-11-08 22:30:12
Wicked West Harley-Davidson,"4360 Rodeo Rd, Santa Fe, NM",5054713808,0,,,,2022-11-08 22:32:12
Thunderbird Harley-Davidson,"5000 Alameda Blvd NE, Albuquerque, NM",5058561600,0,,,,2022-11-08 22:32:12
Champion Harley-Davidson,"2801 W 2nd St, Roswell, NM",5756240151,0,,,,2022-11-08 22:32:12
Tripp's Harley-Davidson,"6040 W Interstate 40, Amarillo, TX",8063522021,0,,,,2022-11-08 22:32:12
Outpost Harley-Davidson,"5001 N Elizabeth, Pueblo, CO",7195426032,0,,,,2022-11-08 22:32:12
Wild West Harley-Davidson,"5702 58th St, Lubbock, TX",8067914597,0,,,,2022-11-08 22:32:13
Pikes Peak Harley-Davidson,"5867 N Nevada Ave., Colorado Springs, CO",7192782300,0,,,,2022-11-08 22:32:13
Barnett Harley-Davidson,"6701 Convair Rd Ste B, El Paso, TX",9157793411,0,,,,2022-11-08 22:32:13
Barnett Harley-Davidson,"8272 Gateway Blvd E, El Paso, TX",9155925804,0,,,,2022-11-08 22:32:13
Legacy Harley-Davidson,"12100 W Hwy 80 E, Odessa, TX",4325618991,0,,,,2022-11-08 22:32:13
Mile High Harley-Davidson of Parker,"Harley-Davidson of Parker, Parker, CO",7208421500,0,,,,2022-11-08 22:32:13
Avalanche Harley-Davidson,"18425 W Colfax Ave, Golden, CO",7204407742,0,,,,2022-11-08 22:32:13
Most Wanted Harley-Davidson,"1310 S 2nd Ave, Dodge City, KS",6202276000,0,,,,2022-11-08 22:32:14
Mile High Harley-Davidson,"16565 E 33rd Dr, Aurora, CO",3033433300,0,,,,2022-11-08 22:32:14
Sun Harley-Davidson,"8858 Pearl St, Thornton, CO",3032877567,0,,,,2022-11-08 22:32:14
High Country Harley-Davidson,"3761 Monarch St, Frederick, CO",3038336777,0,,,,2022-11-08 22:32:14
John Elway Harley-Davidson,"3010 W 29th Street, GREELEY, CO",9703518150,0,,,,2022-11-08 22:32:15
Thunder Mountain Harley-Davidson,"4250 Byrd Dr, Loveland, CO",9702920400,0,,,,2022-11-08 22:32:15
Kents Harley-Davidson Sales,"3106 S Clack St, Abilene, TX",3256737103,0,,,,2022-11-08 22:32:15
Diamondback Harley-Davidson Shop,"162 D East Lake Drive, Medicine Park, OK",5803535088,0,,,,2022-11-08 22:32:15
Diamondback Harley-Davidson,"301 SE Interstate Dr, Lawton, OK",5803535088,0,,,,2022-11-08 22:32:15
Red River Harley-Davidson,"4514 Northwest Fwy, Wichita Falls, TX",9402647743,0,,,,2022-11-08 22:32:16
Harley-Davidson World,"6904 W Reno Ave, Oklahoma City, OK",4056318680,0,,,,2022-11-08 22:32:16
High Country Harley-Davidson of Cheyenne,"3320 E Lincolnway, Cheyenne, WY",3076388307,0,,,,2022-11-08 22:32:16
Iron Nation Harley-Davidson,"3433 S Broadway, Edmond, OK",4054784024,0,,,,2022-11-08 22:32:16
Fort Thunder Harley-Davidson,"500 SW 11th St, Moore, OK",4057938877,0,,,,2022-11-08 22:32:16
Forman Harley-Davidson,"3512 S Boomer Rd, Stillwater, OK",4053770045,0,,,,2022-11-08 22:32:22
Twister City Harley-Davidson,"5427 N Chuzy Dr., Wichita, KS",3164405700,0,,,,2022-11-08 22:32:22
City Cycle Sales Harley-Davidson,"1021 Goldenbelt Blvd, Junction City, KS",7852383411,0,,,,2022-11-08 22:32:23
Myers-Duren Harley-Davidson,"4848 S Peoria Ave, Tulsa, OK",9187434440,0,,,,2022-11-08 22:32:23
Fort Worth Harley-Davidson,"3025 W Loop 820 S, Fort Worth, TX",8176969090,0,,,,2022-11-08 22:32:23
Bartlesville Harley-Davidson,"231 NE Washington Blvd, Bartlesville, OK",9183363800,0,,,,2022-11-08 22:32:23
American Eagle Harley-Davidson,"5920 S Interstate 35 E, Corinth, TX",9404985000,0,,,,2022-11-08 22:32:23
Route 66 Harley-Davidson,"3637 S Memorial Dr, Tulsa, OK",9186221340,0,,,,2022-11-08 22:32:23
Texoma Harley-Davidson,"4000 N. Highway 75, Sherman, TX",9038922530,0,,,,2022-11-08 22:32:23
Texas Harley-Davidson,"1 Texas Harley Way, Bedford, TX",8172672646,0,,,,2022-11-08 22:32:23
Stampede Harley-Davidson,"240 N Burleson Blvd, Burleson, TX",8175028020,0,,,,2022-11-08 22:32:24
Frontier Harley-Davidson Outpost,"2719 S Locust, Grand Island, NE",3083827020,0,,,,2022-11-08 22:32:24
Maverick Harley-Davidson,"1845 N Interstate 35 E, Carrollton, TX",9722451492,0,,,,2022-11-08 22:32:24
Black Gold Harley-Davidson,"1007 State Highway 121, Allen, TX",2144950259,0,,,,2022-11-08 22:32:24
Longhorn Harley-Davidson,"2830 W Interstate 20, Grand Prairie, TX",9729881903,0,,,,2022-11-08 22:32:24
Dallas Harley-Davidson,"1334 W Centerville Rd, Garland, TX",9722703962,0,,,,2022-11-08 22:32:24
Historic Harley-Davidson,"2047 SW Topeka Blvd, Topeka, KS",7852346174,0,,,,2022-11-08 22:32:24
Paris Harley-Davidson,"2875 NE Loop 286, Paris, TX",9037846392,0,,,,2022-11-08 22:32:24
Frontier Harley-Davidson,"205 NW 40th St, Lincoln, NE",4024669100,0,,,,2022-11-08 22:32:24
Harley-Davidson of Waco,"4201 S. Jack Kultgen Expy, Waco, TX",2547530393,0,,,,2022-11-08 22:32:36
Horny Toad Harley-Davidson,"7454 S. General Bruce Dr., TEMPLE, TX",2547437200,0,,,,2022-11-08 22:32:36
Tombstone Harley-Davidson,"526 E Allen St Ste B, Tombstone, AZ",5204571482,0,,,,2022-11-08 22:32:36
Central Texas Harley-Davidson Round,"2801 N Interstate 35, Round Rock, TX",5126521200,0,,,,2022-11-08 22:32:36
Territorio Harley-Davidson,"Periferico de la Juventud, Chihuahua, CHI",0,1,,,,2022-11-08 22:32:54
Old Pueblo Harley-Davidson,"7503 E 22nd St, Tucson, AZ",5205796767,0,,,,2022-11-08 22:32:54
Javelina Harley-Davidson,"29078 Interstate 10 W, Boerne, TX",8307555202,0,,,,2022-11-08 22:36:45
Caliente Harley-Davidson,"7230 NW Loop 410, San Antonio, TX",2106812254,0,,,,2022-11-08 22:36:46
Alamo City Harley-Davidson,"111 W. Crocektt Street, San Antonio, TX",2102124461,0,,,,2022-11-08 22:36:46
Gruene Harley-Davidson,"1288 Loop 337, New Braunfels, TX",8306242473,0,,,,2022-11-08 22:36:46
Cowboy Harley-Davidson of Austin,"10917 S. Intersate 35, Austin, TX",5124484294,0,,,,2022-11-08 22:36:46
Laredo Harley-Davidson,"418 Crossroads St, Laredo, TX",9567178763,0,,,,2022-11-08 22:36:47
The Ranch Harley-Davidson,"4101 State Hwy 6 S, College Station, TX",9796901669,0,,,,2022-11-08 22:36:55
Victoria Harley-Davidson,"608 N Moody St, Victoria, TX",3615757881,0,,,,2022-11-08 22:37:02
Lone Star Harley-Davidson,"1211 SSE 323 Loop, Tyler, TX",9035971488,0,,,,2022-11-08 22:37:02
Corpus Christi Harley-Davidson,"502 S Padre Island Dr, Corpus Christi, TX",3618543146,0,,,,2022-11-08 22:37:02
Mancuso Harley-Davidson Crossroads,"12710 Crossroads Park Dr, Houston, TX",2819709700,0,,,,2022-11-08 22:38:19
HARLEY-DAVIDSON FROSINONE,"Contrada Fontana dei Conti 52, PATRICA, FR",0775271012,1,,,,2022-11-08 22:42:00
HARLEY-DAVIDSON STORE ROMA,"Via Pontina 583, ROMA, RM",065080088,1,,,,2022-11-08 22:42:00
HARLEY-DAVIDSON ROMAN VILLAGE,"Via Demetriade 37, ROMA, RM",0676902178,1,,,,2022-11-08 22:42:00
HARLEY-DAVIDSON STORE ROMA BOUTIQUE,"Via Pinciana 49-51-57, ROMA, RM",068541567,1,,,,2022-11-08 22:42:00
Harley-Davidson San Benedetto Boutique,"Via Silvio Pellico, 155, San Benedetto del Tronto, AP",39073584442,1,,,,2022-11-08 22:42:00
HARLEY-DAVIDSON CIVITANOVA,"Via Alpi 134, Montegranaro, FM",0734898461,1,,,,2022-11-08 22:42:00
HARLEY-DAVIDSON VITERBO,"VIA DELL'INDUSTRIA SNC, LOC. POGGINO VITERBO, VT",390761353762,1,,,,2022-11-08 22:42:01
HARLEY-DAVIDSON ROUTE 76,"Via Arduino Rettaroli 19, JESI, AN",0731200352,1,,,,2022-11-08 22:42:01
HARLEY-DAVIDSON PERUGIA,"Via Togliatti 134/b - SR75 bis, TAVERNE DI CORCIANO, PG",0758473391,1,,,,2022-11-08 22:42:01
Harley-Davidson Zagreb,"Zagrebacka Avenija 106, Zagreb, HRV",38515634922,1,,,,2022-11-08 22:42:02
Harley-Davidson Ljubljana,"Jurckova cesta 233, Ljubljana, 22",38614295700,1,,,,2022-11-08 22:42:02
Myrtle Beach Harley-Davidson,"4710 S Kings Hwy, Myrtle Beach, SC",8433695555,0,,,,2022-11-08 22:48:22
Timms Harley-Davidson of Augusta,"4200 Belair Frontage Rd., Augusta, GA",7066510444,0,,,,2022-11-08 22:48:41
Summerville Harley-Davidson,"386 East 5th North St, Summerville, SC",8432855164,0,,,,2022-11-08 22:52:15
Low Country Harley-Davidson,"4707 Dorchester Rd, North Charleston, SC",8435541847,0,,,,2022-11-08 22:52:15
Republic Harley-Davidson,"12707 Southwest Fwy, Stafford, TX",2812951000,0,,,,2022-11-08 22:55:58
Republic Harley-Davidson,"12750 Sugar Ridge Blvd, Stafford, TX",2812951000,0,,,,2022-11-08 22:55:58
Stubbs Harley-Davidson,"4400 Telephone Rd, Houston, TX",7136447535,0,,,,2022-11-08 22:55:58
San Jacinto Harley-Davidson,"3636 E Sam Houston Pkwy S, Pasadena, TX",2819914275,0,,,,2022-11-08 22:55:59
Mancuso Harley-Davidson Central,"535 N. Loop, Houston, TX",7138805666,0,,,,2022-11-08 22:55:59
Harley-Davidson of the Woodlands,"25545 Interstate 45, Houston, TX",2816810099,0,,,,2022-11-08 22:55:59
Harley-Davidson of Kingwood,"111 Northpines Dr, Kingwood, TX",2813580457,0,,,,2022-11-08 22:55:59
"Cowboy Harley-Davidson of Beaumont, Texas","1150 Interstate 10 S, Beaumont, TX",4098406969,0,,,,2022-11-08 22:56:00
Cowboy Harley-Davidson of Alamo City,"11005 N. Interstate 35, San Antonio, TX",2106460499,0,,,,2022-11-08 22:56:01
Harley-Davidson of Lake Charles,"2120 Broad St, Lake Charles, LA",3374360022,0,,,,2022-11-08 22:56:01
Lumberjack Harley-Davidson,"2518 NW Stallings Dr, Nacogdoches, TX",9367150100,0,,,,2022-11-08 22:56:01
Cajun Harley-Davidson,"724 Interstate 10, Scott, LA",3372893030,0,,,,2022-11-08 22:56:01
Taboo Harley-Davidson,"2030 N Mall Dr, Alexandria, LA",3184481509,0,,,,2022-11-08 22:56:02
Zydeco Harley-Davidson,"1740 Martin Luther, Houma, LA",9858724380,0,,,,2022-11-08 22:56:02
Roughneck Harley-Davidson,"3400 4th Street, Longview, TX",9036633838,0,,,,2022-11-08 22:56:02
HARLEY-DAVIDSON GRANADA,"Antonio Huertas Remigio, 58, Maracena, ESP",34958415225,1,,,,2022-11-08 23:21:52
Harley-Davidson Siebla-Malaga,"AVDA. DOCTOR GALVEZ, Málaga, 29",34683159835,1,,,,2022-11-08 23:21:53
HARLEY-DAVIDSON PORTO,"RUA DOS CAMOES 443, PORTO, 13",351222039125,1,,,,2022-11-08 23:21:53
Harley-Davidson Centro,"Rua Manuel da Mota 9, Pombal, PRT",351236094248,1,,,,2022-11-08 23:21:53
Harley-Davidson Siebla-Marbella,"Ramon Gomez de la Serna, 8, Marbella, ESP",952774286,1,,,,2022-11-08 23:21:53
HARLEY-DAVIDSON VIGO,"Rua da Coruna, 68 Bajos, Vigo, ESP",34886491600,1,,,,2022-11-08 23:21:53
Harley-Davidson Cadiz,"CTRA. PUERTO A ROTA KM 0 525, El Puerto De Santa Maria, 11",34956872005,1,,,,2022-11-08 23:21:53
Harley-Davidson Lisboa,"Rua Vitor Hugo, 16 F (Areeiro), Lisboa, 31",351219156790,1,,,,2022-11-08 23:21:53
Harley-Davidson Algarve,"E. N. 125 - Km 86.6, Quarteira, 50",351289317580,1,,,,2022-11-08 23:21:54
Falcons Fury Harley-Davidson,"900 Dogwood Dr SE, Conyers, GA",7709797999,0,,,,2022-11-08 23:22:22
Hellbender Harley-Davidson,"993 S Cobb Dr SE, Marietta, GA",7709190000,0,,,,2022-11-08 23:22:22
Thunder Tower West Harley-Davidson,"1384 Southlake Pkwy, Morrow, GA",7709606000,0,,,,2022-11-08 23:23:55
Savannah Harley-Davidson on River Street,"221 W River St, Savannah, GA",9122318000,0,,,,2022-11-08 23:25:29
Savannah Harley-Davidson,"1 Fort Argyle Rd, Savannah, GA",9129250005,0,,,,2022-11-08 23:25:54
Deluxe Harley-Davidson of Gillette,"3300 Conestoga Dr, Gillette, WY",3076872001,0,,,,2022-11-08 23:48:07
Hill City Harley-Davidson,"347 Main St, Hill City, SD",6055743636,0,,,,2022-11-08 23:48:23
Deadwood Harley-Davidson,"681 Main St, Deadwood, SD",6057222675,0,,,,2022-11-08 23:48:23
Sturgis Harley-Davidson,"1040 Junction Ave, Sturgis, SD",6053472056,0,,,,2022-11-08 23:48:40
Black Hills Harley-Davidson,"2820 Harley Dr, Rapid City, SD",6053429362,0,,,,2022-11-08 23:49:06
Sarana Harley-Davidson of Bali,"No.99 F G Jl Sultan Iskandar M, Jakarta Selatan, DKI, IDN",62361703839,1,,,,2022-11-08 23:50:27
Badlands Harley-Davidson,"601 Main St, Wall, SD",6053429362,0,,,,2022-11-08 23:56:40
Atlanta Harley-Davidson,"501 Thorton Road, Lithia Springs, GA",7709441340,0,,,,2022-11-08 23:57:42
Great South Harley-Davidson,"185 Hwy 16 E, Newnan, GA",6782288213,0,,,,2022-11-08 23:57:47
Hooligan Harley-Davidson,"231 Davis Loop Rd, Oxford, AL",2568328888,0,,,,2022-11-08 23:57:47
Harley-Davidson of Macon,"5000 Mercer University Dr, Macon, GA",4784743344,0,,,,2022-11-08 23:57:47
Moonshine Harley-Davidson,"7128 S Springs Dr, Franklin, TN",6157717775,0,,,,2022-11-08 23:57:47
Redline Harley-Davidson,"635 Circle Dr E, Saskatoon, SK",3069342750,0,,,,2022-11-08 23:59:10
Harley-Davidson of Columbia,"1616 Harley Davidson Blvd, Columbia, TN",9315400099,0,,,,2022-11-09 00:00:27
Music City Harley-Davidson,"1200 Clinton St, Nashville, TN",6152426067,0,,,,2022-11-09 00:00:27
Redstone Harley-Davidson,"15100 AL Hwy 20, Madison, AL",2563846868,0,,,,2022-11-09 00:00:33
Rally Point Harley-Davidson,"3230 Williams Rd., Columbus, GA",7063244294,0,,,,2022-11-09 00:02:42
Riders Harley-Davidson,"4750 Norrell Dr., Trussville, AL",2056551234,0,,,,2022-11-09 00:05:29
Harley-Davidson Casablanca,"T/a Casablanca Harley-Davidson, Casablanca, MAR",212522797114,1,,,,2022-11-09 00:06:06
Tifton Harley-Davidson,"49 Casseta Rd, Tifton, GA",2293878855,0,,,,2022-11-09 00:06:11
Adamec Harley-Davidson of Jacksonville,"8909 Baymeadows Rd, Jacksonville, FL",9044931931,0,,,,2022-11-09 00:06:12
Adamec Harley-Davidson of Orange Park,"1520 Wells Rd, Orange Park, FL",9042151931,0,,,,2022-11-09 00:06:12
Black Magic Harley-Davidson,"6611 2nd Ave W, Williston, ND",7015721798,0,,,,2022-11-09 00:09:51
Adamec Harley-Davidson of St. Augustine,"380 Outlet Mall Blvd, Saint Augustine, FL",9048311931,0,,,,2022-11-09 00:10:21
Adamec Harley-Davidson of St. Augustine,"118 Saint George St, Saint Augustine, FL",9048250544,0,,,,2022-11-09 00:10:21
Bruce Rossmeyer's Daytona Harley-Davidson,"1637 N US Hwy 1, Ormond Beach, FL",3866717100,0,,,,2022-11-09 00:19:54
Bruce Rossmeyer's Daytona H-D on Main Street,"510 Main St, Daytona Beach, FL",3862532453,0,,,,2022-11-09 00:19:55
Gainesville Harley-Davidson,"4125 NW 97 Blvd, Gainesville, FL",3523316363,0,,,,2022-11-09 00:19:55
Bruce Rossmeyer's New Smyrna Harley-Davidson,"1899 State Road 44, New Smyrna Beach, FL",3864093034,0,,,,2022-11-09 00:20:25
RoughRider Harley-Davidson,"3708 Memorial Hwy, Mandan, ND",7016632220,0,,,,2022-11-09 00:23:16
Magic City Harley-Davidson,"6701 Hwy 83 S, Minot, ND",7018396330,0,,,,2022-11-09 00:23:16
Prairie Harley-Davidson,"101 Carson Rd., Emerald Park, SK",3065221747,0,,,,2022-11-09 00:23:17
Stutsman Harley-Davidson,"2501 3rd Ave SW, Jamestown, ND",7012525271,0,,,,2022-11-09 00:23:17
Glacial Lakes Harley-Davidson,"1000 19th St SE, Watertown, SD",6058863448,0,,,,2022-11-09 00:23:18
Harley-Davidson of Fargo,"701 Christianson Dr, West Fargo, ND",7012771000,0,,,,2022-11-09 00:23:34
J & L Harley-Davidson,"2601 W 60th St N, Sioux Falls, SD",6053342721,0,,,,2022-11-09 00:23:34
Gaslight Harley-Davidson Sales,"999 Thornhill Street., Morden, MB",2048225877,1,,,,2022-11-09 00:23:34
Rooster's Harley-Davidson,"1930 N Lewis Blvd, Sioux City, IA",7122522750,0,,,,2022-11-09 00:24:15
Dillon Brothers Harley-Davidson Shop,"2440 E 23rd St, Fremont, NE",4027212007,0,,,,2022-11-09 00:24:15
Apol's Harley-Davidson Shop,"102 Cofield St S, Raymond, MN",3209674511,0,,,,2022-11-09 00:24:21
Apol's Harley-Davidson,"1515 42nd Ave W, Alexandria, MN",3207639800,0,,,,2022-11-09 00:24:21
Dillon Brothers Harley-Davidson,"3838 N HWS Cleveland Blvd, Omaha, NE",4022895556,0,,,,2022-11-09 00:24:21
Defiance Harley-Davidson,"4940 S 72nd St, Omaha, NE",4023310022,0,,,,2022-11-09 00:24:21
Loess Hills Harley-Davidson,"57408 190th St, Pacific Junction, IA",7128003500,0,,,,2022-11-09 00:25:16
War Horse Harley-Davidson,"5331 N US Hwy 441, Ocala, FL",3527322488,0,,,,2022-11-09 00:43:33
Seminole Harley-Davidson,"620 Hickman Cir, Sanford, FL",4073281212,0,,,,2022-11-09 00:43:34
Tallahassee Harley-Davidson,"1745 Capital Cir NW, Tallahassee, FL",8502054294,0,,,,2022-11-09 00:43:48
Gator Harley-Davidson,"1745 US Hwy 441, Leesburg, FL",3527878050,0,,,,2022-11-09 00:44:02
Miracle City Harley-Davidson,"2405 S. Hopkins Ave., Titusville, FL",3212695226,0,,,,2022-11-09 00:44:10
Crystal Harley-Davidson,"1147 S. Suncoast Blvd, Homosassa, FL",3525639900,0,,,,2022-11-09 00:45:18
Rawhide Harley-Davidson,"725 N Rawhide Rd., Olathe, KS",9135434193,0,,,,2022-11-09 00:46:47
St. Joe Harley-Davidson,"4020 S US Highway 169, Saint Joseph, MO",8162339061,0,,,,2022-11-09 00:46:47
Harley-Davidson of Montgomery,"655 N Eastern Blvd, Montgomery, AL",3342456555,0,,,,2022-11-09 00:46:52
Heart of Dixie Harley-Davidson,"333 Cahaba Valley Pkwy N, Pelham, AL",2055601234,0,,,,2022-11-09 00:46:52
T Town Harley-Davidson,"6401 Interstate Dr, Cottondale, AL",2056326835,0,,,,2022-11-09 00:46:53
Harley-Davidson of Dothan,"2418 Ross Clark Circle, Dothan, AL",3347920063,0,,,,2022-11-09 00:46:53
Natchez Trace Harley-Davidson,"595 Hwy 72 W, Tuscumbia, AL",2563835814,0,,,,2022-11-09 00:46:54
Hideout Harley-Davidson,"5014 Hearnes Blvd., Joplin, MO",4176231054,0,,,,2022-11-09 00:47:01
Worth Harley-Davidson,"9400 NW Prairie View Rd, Kansas City, MO",8164209000,0,,,,2022-11-09 00:47:01
Outlaw Harley-Davidson,"3100 NW Jefferson St, Blue Springs, MO",8162245005,0,,,,2022-11-09 00:49:28
Appleton Harley-Davidson,"2501 Hwy 41A Byp, Clarksville, TN",9316481607,0,,,,2022-11-09 00:53:02
Chunky River Harley-Davidson,"584 Bonita Lakes Dr, Meridian, MS",6014824131,0,,,,2022-11-09 00:53:33
Emerald Coast Harley-Davidson,"788 Beal Pkwy NW, Fort Walton Beach, FL",8508624706,0,,,,2022-11-09 00:53:33
Harley-Davidson Of Carroll,"1327 Plaza Dr, Carroll, IA",7127921610,0,,,,2022-11-09 00:55:57
Chipp's Harley-Davidson Shop,"1301 Southwest Blvd., Osceola, IA",6413427494,0,,,,2022-11-09 00:59:37
Harley-Davidson of Panama City Beach,"14700 Panama City Beach, Panama City Beach, FL",8883280976,0,,,,2022-11-09 01:00:07
Beach Shack Harley-Davidson,"800 Pier Park Dr, Panama City Beach, FL",8503340055,0,,,,2022-11-09 01:00:07
Big Barn Harley-Davidson,"81 NW 49th Pl, Des Moines, IA",5152654444,0,,,,2022-11-09 01:00:16
Pensacola Harley-Davidson,"6385 Pensacola Blvd, Pensacola, FL",8504178747,0,,,,2022-11-09 01:01:22
Orlando Harley-Davidson,"3770 37th St, Orlando, FL",4074230346,0,,,,2022-11-09 01:20:31
Orlando H-D International Drive & Outlet,"8000 International Dr, Orlando, FL",4073513302,0,,,,2022-11-09 01:20:32
Orlando Harley-Davidson at Disney Springs,"1536 E Buena Vista Dr, Lake Buena Vista, FL",4079380522,0,,,,2022-11-09 01:20:32
Orlando Harley-Davidson South,"7786 W Irlo Bronson Hwy, Kissimmee, FL",4079443700,0,,,,2022-11-09 01:20:32
"Bumpus Harley-Davidson of Jackson, LLC","326 Carriage House Dr, Jackson, TN",7314225508,0,,,,2022-11-09 01:31:59
Texarkana Harley-Davidson,"802 Walton Dr, Texarkana, TX",9038324366,0,,,,2022-11-09 01:33:35
3 State Harley-Davidson,"2225 Autoplex Dr, Bossier City, LA",3185491571,0,,,,2022-11-09 01:33:35
Fort Smith Harley-Davidson,"6304 S 36th St, Fort Smith, AR",4796489004,0,,,,2022-11-09 01:35:03
Pig Trail Harley-Davidson,"2409 W Hudson Rd, Rogers, AR",4796369797,0,,,,2022-11-09 01:39:09
Cocoa Beach Harley-Davidson,"3670 N Atlantic Ave, Cocoa Beach, FL",3217992221,0,,,,2022-11-09 01:44:57
Harley-Davidson of New Port Richey,"5817 State Rd 54, New Port Richey, FL",7278424547,0,,,,2022-11-09 01:44:57
Lakeland Harley-Davidson,"4202 Lakeland Hills Blvd, Lakeland, FL",8638021971,0,,,,2022-11-09 01:44:57
Space Coast Harley-Davidson,"1440 Sportsman Ln NE, Palm Bay, FL",3212591311,0,,,,2022-11-09 01:45:14
Harley-Davidson of Tampa,"6920 N Dale Mabry Hwy, Tampa, FL",8138867433,0,,,,2022-11-09 01:45:19
Brandon Harley-Davidson,"9841 E Adamo Dr, Tampa, FL",8137409898,0,,,,2022-11-09 01:45:19
Eureka Springs Harley-Davidson,"302 Village Cir, Eureka Springs, AR",4793636224,0,,,,2022-11-09 01:47:11
Bert's Barracuda Harley-Davidson,"10525 49th Street N, Clearwater, FL",7275279672,0,,,,2022-11-09 01:47:56
Adrenaline Harley-Davidson,"330 Cattleman Road, Sarasota, FL",9419516103,0,,,,2022-11-09 01:48:47
Bert's Black Widow Harley-Davidson,"2224 El Jobean Rd, Port Charlotte, FL",9418838000,0,,,,2022-11-09 01:49:04
Treasure Coast Harley-Davidson,"4967 SE Federal Hwy, Stuart, FL",7722873871,0,,,,2022-11-09 01:49:37
Rockstar Harley-Davidson,"9501 Thunder Rd, Fort Myers, FL",2395339693,0,,,,2022-11-09 01:50:40
Renegade Harley-Davidson,"3980 W Sunshine St., Springfield, MO",4178820100,0,,,,2022-11-09 01:50:46
Mobile Bay Harley-Davidson,"3260 Pleasant Valley Rd, Mobile, AL",2514712174,0,,,,2022-11-09 01:52:05
Stanislaw Myszkowski GAME OVER CYCLES,"Chmury St, Rzeszow, POL",48177412007,1,,,,2022-11-09 01:58:01
Harley-Davidson Presov,"Pod Kalvariou 40, Presov, SVK",421907910380,1,,,,2022-11-09 01:58:01
Harley-Davidson Goldrex,"Vasvari Pal u. 36, Nyiregyhaza, HUN",3642401903,1,,,,2022-11-09 01:58:01
Harley-Davidson Budapest Fashion Shop,"Haris köz 2, Budapest, 06",36204129240,1,,,,2022-11-09 01:58:02
Harley-Davidson Budapest,"Neszmelyi koz 3, Budapest, HUN",3612480922,1,,,,2022-11-09 01:58:02
Harley-Davidson Kiev,"Prospekt Pobedy, 67, Kiev, UKR",380444968488,1,,,,2022-11-09 01:58:02
Harley-Davidson Odessa,"Rozumovskaya Str, 19, Odessa, UKR",380505827085,1,,,,2022-11-09 01:58:04
Warhawk Harley-Davidson,"6200 Frontage Rd, Monroe, LA",3183431650,0,,,,2022-11-09 01:59:08
Mike Bruno's Freedom Harley-Davidson,"5853 Siegen Ln, Baton Rouge, LA",2252929632,0,,,,2022-11-09 01:59:08
Mississippi Gulf Coast Harley-Davidson,"941 Cedar lake Rd, Biloxi, MS",2283888700,0,,,,2022-11-09 01:59:33
Palm Beach Harley-Davidson,"2955 45th St, West Palm Beach, FL",5612466172,0,,,,2022-11-09 02:01:32
Alligator Alley Harley-Davidson,"201 International Pkwy, Sunrise, FL",9546338883,0,,,,2022-11-09 02:01:33
Alligator Alley Harley-Davidson,"3313 SW 12th Ave, Fort Lauderdale, FL",3056006905,0,,,,2022-11-09 02:01:33
Peterson's Harley-Davidson of Miami,"19400 NW 2nd Ave, Miami, FL",3056514811,0,,,,2022-11-09 02:01:39
Harley-Davidson of Freeport,"The Freeport Hbr, Freeport, BHS",8763528245,1,,,,2022-11-09 02:01:39
Harley-Davidson of Freeport,"Port Lucaya Marketplace., Grand Bahama Island, BHS",2423738269,1,,,,2022-11-09 02:01:39
Peterson's Harley-Davidson South,"19825 S Dixie Hwy, Miami, FL",3052354023,0,,,,2022-11-09 02:01:40
New Orleans Harley-Davidson,"6015 Airline Dr, Metairie, LA",5047369600,0,,,,2022-11-09 02:01:46
Peterson's Key West Harley-Davidson,"121 Duval St, Key West, FL",3055176562,0,,,,2022-11-09 02:05:46
Harley-Davidson of Nassau,"Woodes Rodger Wharf, Nassau, BHS",2423562865,1,,,,2022-11-09 02:07:07
Mike Bruno's Northshore Harley-Davidson,"791 W Interstate 10, Slidell, LA",9856415100,0,,,,2022-11-09 02:12:41
VooDoo Harley-Davidson,"812 Decatur St., New Orleans, LA",5045610263,0,,,,2022-11-09 02:15:32
Bourbon Street Harley-Davidson,"235 Bourbon St, New Orleans, LA",5042931820,0,,,,2022-11-09 02:15:33
Harley-Davidson of Jackson,"3509 Interstate 55 S, Jackson, MS",6013725770,0,,,,2022-11-09 02:16:17
Southern Thunder Harley-Davidson,"4870 Venture Dr, Southaven, MS",6623491099,0,,,,2022-11-09 02:19:55
Bumpus Harley-Davidson of Memphis,"2160 Whitten Rd, Memphis, TN",9013721121,0,,,,2022-11-09 02:20:34
Harley-Davidson Dubai,"Sheikh Zayed Rd, Dubai, DON",97143391909,1,,,,2022-11-09 02:24:21
Harley-Davidson of Nassau,"Prince George, Nassau, BHS",2423562865,1,,,,2022-11-09 02:27:38
Harley-Davidson of Grand Cayman,"Aquaworld, George Town, CYM",3456235965,1,,,,2022-11-09 02:37:07
Harley-Davidson Jamaica,"Norman Manley Blvd, Negril, JAM",8769574428,1,,,,2022-11-09 02:37:07
Harley-Davidson Jamaica,"Shop 10, Montego Bay, JAM",8769538368,1,,,,2022-11-09 02:37:08
Harley-Davidson Jamaica Airport,"Sangster International, Montego Bay, JAM",8769403756,1,,,,2022-11-09 02:37:08
Harley-Davidson Jamaica-Montego Bay,"Casa Blanca Hotel, Montego Bay, JAM",8769712576,1,,,,2022-11-09 02:37:08
Harley-Davidson Jamaica,"Shop 303-305, Falmouth, JAM",,1,,,,2022-11-09 02:37:08
Rock City Harley-Davidson,"400 Gateway Grove Loop, Little Rock, AR",5015683160,0,,,,2022-11-09 02:57:28
Toad Suck Harley-Davidson,"1110 Collier Dr, Conway, AR",5013270817,0,,,,2022-11-09 03:00:46
Harley-Davidson of Jonesboro,"4500 Oliver St, Jonesboro, AR",8709320780,0,,,,2022-11-09 03:28:08
Four Rivers Harley-Davidson,"3005 Old Husbands Rd, Paducah, KY",2704435636,0,,,,2022-11-09 03:28:54
Lawless Harley-Davidson of Scott City,"2100 E Outer Rd, Scott City, MO",5733347716,0,,,,2022-11-09 03:39:18
Black Diamond Harley-Davidson,"2400 Williamson County Pkwy., Marion, IL",6189974577,0,,,,2022-11-09 03:48:42
Bud's Harley-Davidson,"4700 E Morgan Ave, Evansville, IN",8124732837,0,,,,2022-11-09 03:48:42
Harley Davidson Center (Cyprus),"15 Megaron St, Nicosia, CYP",35722663131,1,,,,2022-11-09 03:50:18
I-57 Roadhouse Harley-Davidson,"205 N 44th St, Mount Vernon, IL",6182444116,0,,,,2022-11-09 03:52:37
Harley-Davidson of Bloomington,"522 W. Gourley Pike, Bloomington, IN",8123338300,0,,,,2022-11-09 04:52:41
Legacy Harley-Davidson,"1315 Althoff Ave, Effingham, IL",2173423494,0,,,,2022-11-09 04:52:42
Cannonball Harley-Davidson,"3912 S US Highway 41, Terre Haute, IN",8122327821,0,,,,2022-11-09 04:52:42
Green Mount Road Harley-Davidson,"1560 N Green Mount Rd, O Fallon, IL",6186220045,0,,,,2022-11-09 04:52:43
Tim Surdyke's Gold Star Harley-Davidson,"2435 US Highway 67., Festus, MO",6369318700,0,,,,2022-11-09 04:52:43
IndyWest Harley-Davidson,"6201 Cambridge Way, Plainfield, IN",3172790062,0,,,,2022-11-09 04:52:44
Indianapolis Southside H-D,"4930 Southport Crossing, Indianapolis, IN",3178855180,0,,,,2022-11-09 04:52:44
Gateway Harley-Davidson,"3600 Lemay Ferry Rd, Saint Louis, MO",3148459900,0,,,,2022-11-09 04:52:44
Doc's Harley-Davidson,"930 S. Kirkwood Rd, Kirkwood, MO",3149650166,0,,,,2022-11-09 04:54:20
Ted's Harley-Davidson of Alton,"4103 Humbert Rd, Alton, IL",6184623030,0,,,,2022-11-09 04:54:21
St. Charles Harley-Davidson,"3808 W Clay St, Saint Charles, MO",6369466487,0,,,,2022-11-09 04:54:23
"Coziahr Harley-Davidson, Inc.","150 W Marion Ave, Forsyth, IL",2178777115,0,,,,2022-11-09 04:55:02
"Hall's Harley-Davidson, Inc.","2301 N Dirksen Pkwy, Springfield, IL",2175288356,0,,,,2022-11-09 04:55:02
Lake of the Ozarks Harley-Davidson,"6482 Osage Beach Pkwy, Osage Beach, MO",5733027600,0,,,,2022-11-09 05:51:05
Barnhouse Harley-Davidson,"912 US HIGHWAY 54 W, Jefferson City, MO",5736324220,0,,,,2022-11-09 05:51:06
Mid America Harley-Davidson,"5704 Freedom Dr, Columbia, MO",5738754444,0,,,,2022-11-09 05:51:07
Yeager's Harley-Davidson,"3001 S Limit Ave, Sedalia, MO",6608262925,0,,,,2022-11-09 05:52:34
Harley-Davidson Lebanon,"Harley-Davidson Cedarwoods, Beirut, LBN",9611363360,1,,,,2022-11-09 05:55:53
Harley-Davidson CrossRoads,"3 Hamelacha, Tel-Aviv, ISR",97236151071,1,,,,2022-11-09 05:55:54
Harley-Davidson Tel Aviv,"Harley-Davidson Tel Aviv, Holon, ISR",972035058000,1,,,,2022-11-09 05:55:54
Harley-Davidson Amman,"Airport Road, Amman, JOR",962796940343,1,,,,2022-11-09 05:55:54
Andrae's Harley-Davidson,"2010 N Lincoln Ave, Urbana, IL",2173282092,0,,,,2022-11-09 05:58:39
Harley-Davidson Tenerife,"CRTRA GENERAL LA CUESTA, La Laguna, 38",34922645165,1,,,,2022-11-09 06:35:08
Harley-Davidson Las Palmas,"DOCTOR JUAN DOMÍNGUEZ PÉREZ 55, Las Palmas, 35",34928292253,1,,,,2022-11-09 06:35:09
HARLEY-DAVIDSON MADEIRA POP UP,"Rua do Sabão 54, Funchal, 70",351960473298,1,,,,2022-11-09 06:35:09
C & C Harley-Davidson,"130 E Lincoln Ave, Chariton, IA",6417747494,0,,,,2022-11-09 15:28:06
Harley-Davidson of Indianapolis,"12400 Reynolds Dr, Fishers, IN",3178151800,0,,,,2022-11-09 15:32:49
Harley-Davidson of Muncie,"6410 W. McGalliard Rd, Muncie, IN",7652881817,0,,,,2022-11-09 15:32:49
Harley-Davidson of Kokomo,"335 S 00 EW, Kokomo, IN",7658649999,0,,,,2022-11-09 15:32:50
Hunter's Moon Harley-Davidson,"225 Progress, Lafayette, IN",7655886721,0,,,,2022-11-09 15:32:51
Brandt's Harley-Davidson,"1400 N Cass St, Wabash, IN",2605636443,0,,,,2022-11-09 15:32:52
Harley-Davidson of Fort Wayne,"6315 Illinois Rd, Fort Wayne, IN",2604892464,0,,,,2022-11-09 15:32:52
Kersting's Harley-Davidson,"8774 W 700 N, Winamac, IN",5748962974,0,,,,2022-11-09 15:33:03
Napoleon Harley-Davidson,"862 American Rd, Napoleon, OH",4195927123,0,,,,2022-11-09 15:35:07
Route 12 Harley-Davidson,"68951 White School Rd, Sturgis, MI",2696513424,0,,,,2022-11-09 15:58:00
Hoosier Harley-Davidson,"720 W Bristol St, Elkhart, IN",5742622735,0,,,,2022-11-09 15:58:00
McDaniel's Harley-Davidson,"1910 Lincoln Way E, South Bend, IN",5742896650,0,,,,2022-11-09 15:58:00
Harley-Davidson Bergen,"Heiane 6, NYBORG, NOR",4755392200,1,,,,2022-11-09 16:09:27
Harley-Davidson Alesund,"Brusdalsveien 238, Alesund, NOR",4770153636,1,,,,2022-11-09 16:09:28
Harley-Davidson Midt-Norge,"Kvenildmyra 3, Tiller, NOR",4773962233,1,,,,2022-11-09 16:09:28
Walters Brothers Harley-Davidson,"615 S Maxwell Rd, Peoria, IL",3096971917,0,,,,2022-11-09 16:22:13
Heartland Harley-Davidson,"117 S Roosevelt Ave, Burlington, IA",3197541100,0,,,,2022-11-09 16:27:14
Tecumseh Harley-Davidson Shop,"8080 Matthews Hwy, Tecumseh, MI",5174233333,0,,,,2022-11-09 16:47:59
Town & Country Sports Center Harley-Davidson,"18655 US 12, Cement City, MI",5175473333,0,,,,2022-11-09 16:48:00
Battle Creek Harley-Davidson,"5738 Beckley Rd, Battle Creek, MI",2699792233,0,,,,2022-11-09 16:53:57
Riders (Bridgwater) Ltd.,"Riders House, Bridgwater, GBR",441278457652,1,,,,2022-11-09 16:54:53
Oxford Harley-Davidson,"t/a Oxford Harley Davidson, Abingdon, GBR",01865735121,1,,,,2022-11-09 16:54:53
Riders of Bristol,"519-521 STOCKWOOD RD, Bristol, SO",01179588777,1,,,,2022-11-09 16:54:53
Perry Harley-Davidson,"5331 S Sprinkle Rd, Portage, MI",2693293450,0,,,,2022-11-09 17:06:50
Capitol Harley-Davidson,"9550 Woodlane Dr, Dimondale, MI",5176462345,0,,,,2022-11-09 17:07:11
Vehicle City Harley-Davidson,"2400 Austins Pkwy, Flint, MI",8102346646,0,,,,2022-11-09 17:07:11
Grand Rapids Harley-Davidson,"2977 Corporate Grove Dr, Hudsonville, MI",6168960111,0,,,,2022-11-09 17:10:16
Holeshot Harley-Davidson,"4741 E Pickard St, Mount Pleasant, MI",9897725513,0,,,,2022-11-09 17:10:16
The Harley-Davidson Shop of Michigan City,"2968 N US Hwy 421, Michigan City, IN",2198788885,0,,,,2022-11-09 17:14:02
Harley-Davidson of Valparaiso,"1151 Morthland Dr, Valparaiso, IN",2194622223,0,,,,2022-11-09 17:14:02
Hot Rod Harley-Davidson,"149 Shoreline Dr, Muskegon, MI",2317220000,0,,,,2022-11-09 17:14:03
Sandy's Harley-Davidson Sport Center,"4740 S Maple Island Rd, Fremont, MI",2319243020,0,,,,2022-11-09 17:14:03
Chicago Harley-Davidson of Wrigleyville,"1027 W Addison St, A-110, Chicago, IL",7736974182,0,,,,2022-11-09 17:14:19
Chi-Town Harley-Davidson,"17801 La Grange Rd, Tinley Park, IL",7086236000,0,,,,2022-11-09 17:14:20
Illinois Harley-Davidson,"9950 Joliet Rd, Countryside, IL",7083878750,0,,,,2022-11-09 17:15:03
Harley-Davidson of Mandalay,"#27 Shartawlay Ward, Mandalay, MMR",9595104431,1,,,,2022-11-09 17:33:01
Cardiff Harley-Davidson,"Glynstell Park, Cardiff, GBR",,1,,,,2022-11-09 18:04:18
Dave's River Valley Harley-Davidson,"1200 N River Dr, Mankato, MN",5073456077,0,,,,2022-11-09 18:09:45
Zylstra Harley-Davidson,"1930 E. 13th St, Ames, IA",5152326223,0,,,,2022-11-09 18:09:45
Route 65 Harley-Davidson Shop,"1300 S Jefferson Way, Indianola, IA",5159622160,0,,,,2022-11-09 18:09:45
Bergdale Harley-Davidson,"905 E Plaza St, Albert Lea, MN",5073735236,0,,,,2022-11-09 18:09:46
Harley-Davidson of Mason City,"706 S Federal Ave., Mason City, IA",6414236007,0,,,,2022-11-09 18:09:46
Viking Land Harley-Davidson,"3555 Shadowwood Dr NE, Sauk Rapids, MN",3202516980,0,,,,2022-11-09 18:09:52
Faribault Harley-Davidson,"2704 W Airport Dr, Faribault, MN",5073345130,0,,,,2022-11-09 18:12:40
Wild Prairie Harley-Davidson,"12480 Plaza Dr, Eden Prairie, MN",9526985000,0,,,,2022-11-09 18:12:41
Twin Cities Harley-Davidson,"10770 165th St W, Lakeville, MN",9528984515,0,,,,2022-11-09 18:12:41
Cedar River Harley-Davidson Shop,"1750 Cedar View Rd, Charles City, IA",6412282192,0,,,,2022-11-09 18:12:54
Elk River Harley-Davidson,"19600 Evan St NW, Elk River, MN",7632412000,0,,,,2022-11-09 18:12:54
Silver Eagle Harley-Davidson,"4022 Sergeant Rd, Waterloo, IA",3192356505,0,,,,2022-11-09 18:21:13
Metro Harley-Davidson,"2415 Westdale Dr SW, Cedar Rapids, IA",3193629496,0,,,,2022-11-09 18:21:15
McGrath Hawkeye Harley-Davidson,"120 Westcor Dr, Coralville, IA",3195457495,0,,,,2022-11-09 18:21:15
"Rochester Harley-Davidson, Inc.","7180 Highway 14 E, Rochester, MN",5072889050,0,,,,2022-11-09 18:21:22
Twin Cities Harley-Davidson North,"1355 98th Ave NE, Blaine, MN",7637869079,0,,,,2022-11-09 18:33:01
St. Paul Harley-Davidson,"2899 Hudson Blvd, Saint Paul, MN",6517382168,0,,,,2022-11-09 18:33:01
St. Croix Harley-Davidson,"2060 Hwy 65, New Richmond, WI",7152462959,0,,,,2022-11-09 18:33:02
Iron Hill Harley-Davidson,"208 Highway 9 Anx SW, Waukon, IA",5635683471,0,,,,2022-11-09 18:33:02
Great River Harley-Davidson,"1116 Oak Forest Dr, Onalaska, WI",6087836112,0,,,,2022-11-09 18:33:02
Chippewa Falls Harley-Davidson,"2452 Hallie Rd, Chippewa Falls, WI",7157237433,0,,,,2022-11-09 18:33:02
McGrath Dubuque Harley-Davidson,"145 N Crescent Rdg, Dubuque, IA",5635573735,0,,,,2022-11-09 18:33:03
Rice Lake Harley-Davidson,"2801 S Wisconsin Ave, Rice Lake, WI",7152345400,0,,,,2022-11-09 18:33:03
McGrath Quad Cities Harley-Davidson,"5320 Corporate Park Dr, Davenport, IA",5633556437,0,,,,2022-11-09 18:33:11
Clinton Harley-Davidson,"2519 Lincoln Way, Clinton, IA",5632421901,0,,,,2022-11-09 18:33:33
Ridges Harley-Davidson,"NH1A, BYPASS , CHANNI HIMMAT, Jammu Tawi, 09",01913510446,1,,,,2022-11-09 18:37:14
Grand Trunk Harley-Davidson,"Khasra No. 17/3/5-17/3-4, Ludhiana, 19",918558896424,1,,,,2022-11-09 18:37:14
Himalayan Harley-Davidson,"Plot 167, Industrial Area, Chandigarh, 19",9915025588,1,,,,2022-11-09 18:37:15
Foothills Harley-Davidson,"939, Mauja Majra, Dehradun, IND",919225334161,1,,,,2022-11-09 18:37:15
Capital Harley-Davidson,"PLOT NO-26, SECTOR-34, GURGAON, 07",9717308844,1,,,,2022-11-09 18:37:15
Capital Harley-Davidson,"A-18 Block B-1 Mathura Rd., New Delhi, IND",9717308844,1,,,,2022-11-09 18:37:15
Reiman's Harley-Davidson,"623 N Main St, Kewanee, IL",3098546661,0,,,,2022-11-09 18:47:21
Phantom Harley-Davidson,"291 Cypress Dr, Manteno, IL",8154688673,0,,,,2022-11-09 18:50:11
Conrad's Harley-Davidson,"19356 NE Frontage Rd, Shorewood, IL",8157252000,0,,,,2022-11-09 18:50:12
Chicago Harley-Davidson,"5490 Park Place, Des Plaines, IL",8474547244,0,,,,2022-11-09 18:50:13
Heritage Harley-Davidson,"2595 Ogden Ave, Lisle, IL",3313308425,0,,,,2022-11-09 18:50:13
Wild Fire Harley-Davidson,"120 W North Ave, Villa Park, IL",6308346571,0,,,,2022-11-09 18:50:13
Starved Rock Harley-Davidson,"750 Centennial Dr, Ottawa, IL",8154311900,0,,,,2022-11-09 18:50:43
Fox River Harley-Davidson,"131 S Randall Rd, Saint Charles, IL",6305848000,0,,,,2022-11-09 18:51:35
City Limits Harley-Davidson,"2015 N Rand Rd., Palatine, IL",8473582112,0,,,,2022-11-09 18:51:35
Lake Shore Harley-Davidson,"14000 W Rockland Rd, Libertyville, IL",8476624500,0,,,,2022-11-09 18:51:35
Barbed Wire Harley-Davidson,"969 N Peace Rd, DeKalb, IL",8157564558,0,,,,2022-11-09 18:51:50
Woodstock Harley-Davidson,"2235 S Eastwood Dr, Woodstock, IL",8153373511,0,,,,2022-11-09 18:53:47
Uke's Harley-Davidson,"5995 120th Ave, Kenosha, WI",2628578537,0,,,,2022-11-09 19:04:53
Lake Geneva Harley-Davidson,"704 Main St., Lake Geneva, WI",2627294078,0,,,,2022-11-09 19:04:54
House of Harley-Davidson,"Mitchell Intl. Airport, Milwaukee, WI",4147475384,0,,,,2022-11-09 19:04:54
House of Harley-Davidson,"6221 W Layton Ave, Greenfield, WI",4142822211,0,,,,2022-11-09 19:04:55
Kegel Harley-Davidson,"7125 Harrison Ave, Rockford, IL",8153327125,0,,,,2022-11-09 19:04:55
Milwaukee Harley-Davidson,"11310 W Silver Spring Rd, Milwaukee, WI",4144614444,0,,,,2022-11-09 19:04:55
Suburban Motors Harley-Davidson,"139 N Main St., Thiensville, WI",2622422464,0,,,,2022-11-09 19:04:55
Wisconsin Harley-Davidson,"1280 Blue Ribbon Dr, Oconomowoc, WI",2625698500,0,,,,2022-11-09 19:04:56
West Bend Harley-Davidson,"2910 W Washington St, West Bend, WI",2623388761,0,,,,2022-11-09 19:04:56
Workman Harley-Davidson,"1903 1st Ave, Rock Falls, IL",8156261213,0,,,,2022-11-09 19:04:56
Harley-Davidson of Madison,"6200 Millpond Rd, Madison, WI",6082212761,0,,,,2022-11-09 19:04:57
Open Road Harley-Davidson,"24 S. Rolling Meadows Dr, Fond du Lac, WI",9209212344,0,,,,2022-11-09 19:10:43
Gildner's Harley-Davidson,"2723 S M 76, West Branch, MI",9893451330,0,,,,2022-11-09 20:31:43
Zips 45th Parallel Harley-Davidson,"980 S Wisconsin Ave, Gaylord, MI",9897328000,0,,,,2022-11-09 20:31:54
Zips Traverse City Harley-Davidson,"330 E Front St, Traverse City, MI",2314804647,0,,,,2022-11-09 20:31:55
Zips Mackinaw City Harley-Davidson,"314 E Central Ave, Mackinaw City, MI",2314365331,0,,,,2022-11-09 20:57:39
The Rock Harley-Davidson,"2240 Long Lake Rd, Sudbury, ON",8556824464,1,,,,2022-11-09 20:58:18
Harbor Town Harley-Davidson,"2433 Hecker Rd, Manitowoc, WI",9206840237,0,,,,2022-11-09 20:58:35
Vandervest Harley-Davidson of Green Bay,"1966 Velp Ave, Green Bay, WI",9204988822,0,,,,2022-11-09 21:07:56
Doc's Harley-Davidson of Shawano County,"W2709 State Hwy 29, Bonduel, WI",7157589080,0,,,,2022-11-09 21:07:58
Harley-Davidson of Appleton,"5322 W Clairemont Dr, Appleton, WI",9207571651,0,,,,2022-11-09 21:07:58
Bald Eagle Harley-Davidson,"2080 US 41 W, Marquette, MI",9062285330,0,,,,2022-11-09 21:09:03
Harley-Davidson Nord Norge,"Bjørkåsveien 18, Ballangen, NOR",4776927400,1,,,,2022-11-09 21:35:51
Harley-Davidson Tromso,"Skattorvegen 40, Tromso, NOR",4795245530,1,,,,2022-11-09 21:35:51
Reel Brothers Dells Harley-Davidson,"524 Wisconsin Dells Pkwy, Wisconsin Dells, WI",6082532252,0,,,,2022-11-09 22:07:10
Bull Falls Harley-Davidson of Wausau,"1570 County Rd XX, Rothschild, WI",7153554464,0,,,,2022-11-09 22:07:26
Reel Brothers Harley-Davidson,"N4833 Hwy 58, Mauston, WI",6088477702,0,,,,2022-11-09 22:07:53
Northwoods Harley-Davidson,"1700 US Hwy 51N, Woodruff, WI",7153585054,0,,,,2022-11-09 22:12:20
Thunder Bay Harley-Davidson,"636 West Arthur Street, Thunder Bay, ON",8075776221,1,,,,2022-11-09 22:18:16
Abitibi Harley-Davidson,"201 Route 109 Sud, Amos, QC",8199752330,1,,,,2022-11-09 22:18:44
Harley-Davidson Sport Center,"4355 Stebner Rd, Duluth, MN",2187299600,0,,,,2022-11-09 22:22:43
Harley-Davidson Kunming,"Room 109-112, Block 2, Kunming, CHN",3980652215,1,,,,2022-11-09 22:40:27
Harley-Davidson Kunming Free Trade Zone,"No. 101, 1F, Category E, Kunming City, CHN",,1,,,,2022-11-09 22:40:27
Harley-Davidson of Hanoi,"No. 40 Ngo Gia Tu Street, Hanoi, VNM",84438737888,1,,,,2022-11-09 22:40:27
Cheltenham Harley-Davidson,"599 Princess Elizabeth Way, Cheltenham, GBR",01242240570,1,,,,2022-11-09 22:52:59
Swansea Harley-Davidson,"Phoenix Way, Swansea, GBR",01792224444,1,,,,2022-11-09 22:52:59
Sycamore Harley-Davidson (Wolverhampton),"37-43 Chapel Ash, Wolverhampton, WM",01902371600,1,,,,2022-11-09 22:53:00
Newmarket Harley-Davidson,"100 Oaks Drive Business Park, Newmarket, GBR",1638664455,1,,,,2022-11-09 22:53:01
Sycamore Harley-Davidson,"NORTH ST, Uppingham, GBR",01572823296,1,,,,2022-11-09 22:53:01
Robin Hood Harley-Davidson,"401 Meadow Ln, Nottingham, GBR",1159683250,1,,,,2022-11-09 22:53:01
Norwich Harley-Davidson,"120 Ber St, Norwich, GBR",441603620222,1,,,,2022-11-09 22:53:01
Harleyworld Harley-Davidson,"Station Rd, Whittington Moor, Chesterfield, GBR",01246450850,1,,,,2022-11-09 22:53:01
Harley-Davidson Winnipeg,"1377 Niakwa Road E, Winnipeg, MB",2042543974,1,,,,2022-11-10 01:36:20
Waterfall Harley-Davidson,"Plot no. 131, ranchi, 34",9007067424,1,,,,2022-11-10 03:15:07
Bengal Harley-Davidson,"M.A.R-1111 New Town, Kolkata, 25",9007023239,1,,,,2022-11-10 03:15:07
United Harley-Davidson,"PLOT NO 655, UTTARDHAUNA, Lucknow, 24",919225333759,1,,,,2022-11-10 03:15:07
Konark Harley-Davidson,"NH-5, Pahal, Bhubaneswar, IND",7437000643,1,,,,2022-11-10 03:15:07
